{"type": "FeatureCollection", "features": [{"type": "Feature", "id": 474, "geometry": {"type": "Point", "coordinates": [-8.816333333602072, 42.14491654816043]}, "properties": {"OBJECTID": 474, "NOMEAVPC": "Val Miñor (Baiona, Nigrán e Gondomar)", "category": "avpc", "source_layer": "AVPC"}}, {"type": "Feature", "id": 475, "geometry": {"type": "Point", "coordinates": [-7.437924705574117, 43.54927461221607]}, "properties": {"OBJECTID": 475, "NOMEAVPC": "O Valadouro", "category": "avpc", "source_layer": "AVPC"}}, {"type": "Feature", "id": 476, "geometry": {"type": "Point", "coordinates": [-8.149631261360787, 43.59614125096488]}, "properties": {"OBJECTID": 476, "NOMEAVPC": "Valdoviño", "category": "avpc", "source_layer": "AVPC"}}, {"type": "Feature", "id": 477, "geometry": {"type": "Point", "coordinates": [-8.656138890149522, 42.70549987753828]}, "properties": {"OBJECTID": 477, "NOMEAVPC": "Valga", "category": "avpc", "source_layer": "AVPC"}}, {"type": "Feature", "id": 478, "geometry": {"type": "Point", "coordinates": [-8.443066926589747, 42.78827825304882]}, "properties": {"OBJECTID": 478, "NOMEAVPC": "Vedra", "category": "avpc", "source_layer": "AVPC"}}, {"type": "Feature", "id": 479, "geometry": {"type": "Point", "coordinates": [-7.02785229794004, 42.25205355075466]}, "properties": {"OBJECTID": 479, "NOMEAVPC": "A Veiga", "category": "avpc", "source_layer": "AVPC"}}, {"type": "Feature", "id": 480, "geometry": {"type": "Point", "coordinates": [-7.441151580791224, 41.93853631302313]}, "properties": {"OBJECTID": 480, "NOMEAVPC": "Verín", "category": "avpc", "source_layer": "AVPC"}}, {"type": "Feature", "id": 481, "geometry": {"type": "Point", "coordinates": [-7.109145945510354, 42.178398333874576]}, "properties": {"OBJECTID": 481, "NOMEAVPC": "Viana do Bolo", "category": "avpc", "source_layer": "AVPC"}}, {"type": "Feature", "id": 482, "geometry": {"type": "Point", "coordinates": [-7.671067449256631, 43.7335985220889]}, "properties": {"OBJECTID": 482, "NOMEAVPC": "O Vicedo", "category": "avpc", "source_layer": "AVPC"}}, {"type": "Feature", "id": 483, "geometry": {"type": "Point", "coordinates": [-8.730444444372134, 42.23313876764052]}, "properties": {"OBJECTID": 483, "NOMEAVPC": "Vigo", "category": "avpc", "source_layer": "AVPC"}}, {"type": "Feature", "id": 484, "geometry": {"type": "Point", "coordinates": [-8.172666668655031, 42.79372209719596]}, "properties": {"OBJECTID": 484, "NOMEAVPC": "Vila de Cruces", "category": "avpc", "source_layer": "AVPC"}}, {"type": "Feature", "id": 485, "geometry": {"type": "Point", "coordinates": [-8.635444444798932, 42.360388767399066]}, "properties": {"OBJECTID": 485, "NOMEAVPC": "Vilaboa", "category": "avpc", "source_layer": "AVPC"}}, {"type": "Feature", "id": 486, "geometry": {"type": "Point", "coordinates": [-8.764861111039169, 42.588583207525545]}, "properties": {"OBJECTID": 486, "NOMEAVPC": "Vilagarcía de Arousa", "category": "avpc", "source_layer": "AVPC"}}, {"type": "Feature", "id": 487, "geometry": {"type": "Point", "coordinates": [-7.680622432032088, 43.29726015897443]}, "properties": {"OBJECTID": 487, "NOMEAVPC": "Vilalba", "category": "avpc", "source_layer": "AVPC"}}, {"type": "Feature", "id": 488, "geometry": {"type": "Point", "coordinates": [-7.888484469461712, 42.46482686137794]}, "properties": {"OBJECTID": 488, "NOMEAVPC": "Vilamarín", "category": "avpc", "source_layer": "AVPC"}}, {"type": "Feature", "id": 489, "geometry": {"type": "Point", "coordinates": [-7.060860761361336, 42.414295967512516]}, "properties": {"OBJECTID": 489, "NOMEAVPC": "Vilamartín de Valdeorras", "category": "avpc", "source_layer": "AVPC"}}, {"type": "Feature", "id": 490, "geometry": {"type": "Point", "coordinates": [-8.825777778348485, 42.56022209725354]}, "properties": {"OBJECTID": 490, "NOMEAVPC": "Vilanova de Arousa", "category": "avpc", "source_layer": "AVPC"}}, {"type": "Feature", "id": 491, "geometry": {"type": "Point", "coordinates": [-7.6105990023686365, 42.16119443470582]}, "properties": {"OBJECTID": 491, "NOMEAVPC": "Vilar de Barrio", "category": "avpc", "source_layer": "AVPC"}}, {"type": "Feature", "id": 492, "geometry": {"type": "Point", "coordinates": [-7.794352445290074, 42.087376562224854]}, "properties": {"OBJECTID": 492, "NOMEAVPC": "Vilar de Santos", "category": "avpc", "source_layer": "AVPC"}}, {"type": "Feature", "id": 493, "geometry": {"type": "Point", "coordinates": [-7.311350290237562, 41.90611297727497]}, "properties": {"OBJECTID": 493, "NOMEAVPC": "Vilardevós", "category": "avpc", "source_layer": "AVPC"}}, {"type": "Feature", "id": 494, "geometry": {"type": "Point", "coordinates": [-7.181914591098407, 42.16588308684941]}, "properties": {"OBJECTID": 494, "NOMEAVPC": "Vilariño de Conso", "category": "avpc", "source_layer": "AVPC"}}, {"type": "Feature", "id": 495, "geometry": {"type": "Point", "coordinates": [-8.121729632686185, 43.071931616703814]}, "properties": {"OBJECTID": 495, "NOMEAVPC": "Vilasantar", "category": "avpc", "source_layer": "AVPC"}}, {"type": "Feature", "id": 496, "geometry": {"type": "Point", "coordinates": [-9.037017209174536, 43.11666065557992]}, "properties": {"OBJECTID": 496, "NOMEAVPC": "Vimianzo", "category": "avpc", "source_layer": "AVPC"}}, {"type": "Feature", "id": 497, "geometry": {"type": "Point", "coordinates": [-7.590520741281926, 43.66738042428818]}, "properties": {"OBJECTID": 497, "NOMEAVPC": "Viveiro", "category": "avpc", "source_layer": "AVPC"}}, {"type": "Feature", "id": 498, "geometry": {"type": "Point", "coordinates": [-7.813472766334825, 43.354777358880575]}, "properties": {"OBJECTID": 498, "NOMEAVPC": "Xermade", "category": "avpc", "source_layer": "AVPC"}}, {"type": "Feature", "id": 499, "geometry": {"type": "Point", "coordinates": [-7.724692786377619, 42.06371245372959]}, "properties": {"OBJECTID": 499, "NOMEAVPC": "Xinzo de Limia", "category": "avpc", "source_layer": "AVPC"}}, {"type": "Feature", "id": 500, "geometry": {"type": "Point", "coordinates": [-7.735275367695778, 42.204300782439034]}, "properties": {"OBJECTID": 500, "NOMEAVPC": "Xunqueira de Ambía", "category": "avpc", "source_layer": "AVPC"}}, {"type": "Feature", "id": 501, "geometry": {"type": "Point", "coordinates": [-7.631789881347738, 42.3185641499919]}, "properties": {"OBJECTID": 501, "NOMEAVPC": "Xunqueira de Espadanedo", "category": "avpc", "source_layer": "AVPC"}}, {"type": "Feature", "id": 502, "geometry": {"type": "Point", "coordinates": [-8.916308952127267, 43.10649583599772]}, "properties": {"OBJECTID": 502, "NOMEAVPC": "Zas", "category": "avpc", "source_layer": "AVPC"}}, {"type": "Feature", "id": 503, "geometry": {"type": "Point", "coordinates": [-8.629046391377175, 42.86975472879587]}, "properties": {"OBJECTID": 503, "NOMEAVPC": "Ames", "category": "avpc", "source_layer": "AVPC"}}, {"type": "Feature", "id": 504, "geometry": {"type": "Point", "coordinates": [-8.50657940708221, 43.31175845757213]}, "properties": {"OBJECTID": 504, "NOMEAVPC": "Arteixo", "category": "avpc", "source_layer": "AVPC"}}, {"type": "Feature", "id": 505, "geometry": {"type": "Point", "coordinates": [-8.14330249503302, 42.43161155807829]}, "properties": {"OBJECTID": 505, "NOMEAVPC": "Boborás", "category": "avpc", "source_layer": "AVPC"}}, {"type": "Feature", "id": 506, "geometry": {"type": "Point", "coordinates": [-8.67575906003301, 42.86160729925521]}, "properties": {"OBJECTID": 506, "NOMEAVPC": "Brión", "category": "avpc", "source_layer": "AVPC"}}, {"type": "Feature", "id": 507, "geometry": {"type": "Point", "coordinates": [-8.420801761079808, 43.34812189017919]}, "properties": {"OBJECTID": 507, "NOMEAVPC": "A Coruña", "category": "avpc", "source_layer": "AVPC"}}, {"type": "Feature", "id": 508, "geometry": {"type": "Point", "coordinates": [-8.14173522940058, 43.12531540461251]}, "properties": {"OBJECTID": 508, "NOMEAVPC": "Curtis", "category": "avpc", "source_layer": "AVPC"}}, {"type": "Feature", "id": 509, "geometry": {"type": "Point", "coordinates": [-8.865546984832609, 42.493396584396834]}, "properties": {"OBJECTID": 509, "NOMEAVPC": "Grove, O", "category": "avpc", "source_layer": "AVPC"}}, {"type": "Feature", "id": 510, "geometry": {"type": "Point", "coordinates": [-8.039587169623868, 41.98717654735894]}, "properties": {"OBJECTID": 510, "NOMEAVPC": "Lobeira", "category": "avpc", "source_layer": "AVPC"}}, {"type": "Feature", "id": 511, "geometry": {"type": "Point", "coordinates": [-8.025353615895353, 42.411708681751094]}, "properties": {"OBJECTID": 511, "NOMEAVPC": "Maside", "category": "avpc", "source_layer": "AVPC"}}, {"type": "Feature", "id": 512, "geometry": {"type": "Point", "coordinates": [-8.99102873854532, 42.933966010933155]}, "properties": {"OBJECTID": 512, "NOMEAVPC": "Mazaricos", "category": "avpc", "source_layer": "AVPC"}}, {"type": "Feature", "id": 513, "geometry": {"type": "Point", "coordinates": [-8.254997690106487, 43.46046971275632]}, "properties": {"OBJECTID": 513, "NOMEAVPC": "Mugardos", "category": "avpc", "source_layer": "AVPC"}}, {"type": "Feature", "id": 514, "geometry": {"type": "Point", "coordinates": [-9.068621594648588, 42.78838919496783]}, "properties": {"OBJECTID": 514, "NOMEAVPC": "Muros", "category": "avpc", "source_layer": "AVPC"}}, {"type": "Feature", "id": 515, "geometry": {"type": "Point", "coordinates": [-7.841964133077292, 43.669440039571]}, "properties": {"OBJECTID": 515, "NOMEAVPC": "Ortigueira", "category": "avpc", "source_layer": "AVPC"}}, {"type": "Feature", "id": 516, "geometry": {"type": "Point", "coordinates": [-8.658093216435125, 42.75790507787297]}, "properties": {"OBJECTID": 516, "NOMEAVPC": "Padrón", "category": "avpc", "source_layer": "AVPC"}}, {"type": "Feature", "id": 517, "geometry": {"type": "Point", "coordinates": [-8.86980004219981, 43.25453999861251]}, "properties": {"OBJECTID": 517, "NOMEAVPC": "Ponteceso", "category": "avpc", "source_layer": "AVPC"}}, {"type": "Feature", "id": 518, "geometry": {"type": "Point", "coordinates": [-7.984779435086101, 42.47495086399312]}, "properties": {"OBJECTID": 518, "NOMEAVPC": "San Cristovo de Cea", "category": "avpc", "source_layer": "AVPC"}}, {"type": "Feature", "id": 519, "geometry": {"type": "Point", "coordinates": [-8.828207488419707, 42.400434782459314]}, "properties": {"OBJECTID": 519, "NOMEAVPC": "Sanxenxo", "category": "avpc", "source_layer": "AVPC"}}, {"type": "Feature", "id": 520, "geometry": {"type": "Point", "coordinates": [-8.248034759046732, 42.69759175331336]}, "properties": {"OBJECTID": 520, "NOMEAVPC": "Silleda", "category": "avpc", "source_layer": "AVPC"}}, {"type": "Feature", "id": 521, "geometry": {"type": "Point", "coordinates": [-8.571279244948906, 42.33891052181798]}, "properties": {"OBJECTID": 521, "NOMEAVPC": "Soutomaior", "category": "avpc", "source_layer": "AVPC"}}, {"type": "Feature", "id": 522, "geometry": {"type": "Point", "coordinates": [-8.517662225934457, 43.02690386703396]}, "properties": {"OBJECTID": 522, "NOMEAVPC": "Trazo", "category": "avpc", "source_layer": "AVPC"}}, {"type": "Feature", "id": 523, "geometry": {"type": "Point", "coordinates": [-8.643386504256057, 42.050046861005114]}, "properties": {"OBJECTID": 523, "NOMEAVPC": "Tui", "category": "avpc", "source_layer": "AVPC"}}, {"type": "Feature", "id": 524, "geometry": {"type": "Point", "coordinates": [-8.288586310025844, 43.22735194873867]}, "properties": {"OBJECTID": 524, "NOMEAVPC": "Abegondo", "category": "avpc", "source_layer": "AVPC"}}, {"type": "Feature", "id": 525, "geometry": {"type": "Point", "coordinates": [-8.024833335005713, 42.77319431659265]}, "properties": {"OBJECTID": 525, "NOMEAVPC": "Agolada", "category": "avpc", "source_layer": "AVPC"}}, {"type": "Feature", "id": 526, "geometry": {"type": "Point", "coordinates": [-7.798935760966716, 42.188191669408404]}, "properties": {"OBJECTID": 526, "NOMEAVPC": "Allariz", "category": "avpc", "source_layer": "AVPC"}}, {"type": "Feature", "id": 527, "geometry": {"type": "Point", "coordinates": [-7.947087827146135, 42.414661173424044]}, "properties": {"OBJECTID": 527, "NOMEAVPC": "Amoeiro", "category": "avpc", "source_layer": "AVPC"}}, {"type": "Feature", "id": 528, "geometry": {"type": "Point", "coordinates": [-8.245348099037098, 43.42588585328526]}, "properties": {"OBJECTID": 528, "NOMEAVPC": "Ares", "category": "avpc", "source_layer": "AVPC"}}, {"type": "Feature", "id": 529, "geometry": {"type": "Point", "coordinates": [-8.161995022225659, 42.93285247492261]}, "properties": {"OBJECTID": 529, "NOMEAVPC": "Arzúa", "category": "avpc", "source_layer": "AVPC"}}, {"type": "Feature", "id": 530, "geometry": {"type": "Point", "coordinates": [-8.252942029325474, 42.375264387127345]}, "properties": {"OBJECTID": 530, "NOMEAVPC": "Avión", "category": "avpc", "source_layer": "AVPC"}}, {"type": "Feature", "id": 531, "geometry": {"type": "Point", "coordinates": [-7.245989722863282, 43.0155557873194]}, "properties": {"OBJECTID": 531, "NOMEAVPC": "Baleira", "category": "avpc", "source_layer": "AVPC"}}, {"type": "Feature", "id": 532, "geometry": {"type": "Point", "coordinates": [-7.714359259911021, 41.95381670170979]}, "properties": {"OBJECTID": 532, "NOMEAVPC": "Baltar", "category": "avpc", "source_layer": "AVPC"}}, {"type": "Feature", "id": 533, "geometry": {"type": "Point", "coordinates": [-7.9731570486520695, 42.03345503085259]}, "properties": {"OBJECTID": 533, "NOMEAVPC": "Bande", "category": "avpc", "source_layer": "AVPC"}}, {"type": "Feature", "id": 534, "geometry": {"type": "Point", "coordinates": [-7.679110689919051, 42.236932546751675]}, "properties": {"OBJECTID": 534, "NOMEAVPC": "Baños de Molgas", "category": "avpc", "source_layer": "AVPC"}}, {"type": "Feature", "id": 535, "geometry": {"type": "Point", "coordinates": [-7.886153078744342, 42.311118747854415]}, "properties": {"OBJECTID": 535, "NOMEAVPC": "Barbadás", "category": "avpc", "source_layer": "AVPC"}}, {"type": "Feature", "id": 536, "geometry": {"type": "Point", "coordinates": [-6.977448590091135, 42.424005818900305]}, "properties": {"OBJECTID": 536, "NOMEAVPC": "O Barco de Valdeorras", "category": "avpc", "source_layer": "AVPC"}}, {"type": "Feature", "id": 537, "geometry": {"type": "Point", "coordinates": [-7.233282994549597, 43.540811295550014]}, "properties": {"OBJECTID": 537, "NOMEAVPC": "Barreiros", "category": "avpc", "source_layer": "AVPC"}}, {"type": "Feature", "id": 538, "geometry": {"type": "Point", "coordinates": [-8.638333333596293, 42.52436098761937]}, "properties": {"OBJECTID": 538, "NOMEAVPC": "Barro", "category": "avpc", "source_layer": "AVPC"}}, {"type": "Feature", "id": 539, "geometry": {"type": "Point", "coordinates": [-8.278133061422023, 42.47093124593095]}, "properties": {"OBJECTID": 539, "NOMEAVPC": "Beariz", "category": "avpc", "source_layer": "AVPC"}}, {"type": "Feature", "id": 540, "geometry": {"type": "Point", "coordinates": [-7.15969346091087, 42.849465499959756]}, "properties": {"OBJECTID": 540, "NOMEAVPC": "Becerreá", "category": "avpc", "source_layer": "AVPC"}}, {"type": "Feature", "id": 541, "geometry": {"type": "Point", "coordinates": [-8.272088820164177, 43.31394508266044]}, "properties": {"OBJECTID": 541, "NOMEAVPC": "Bergondo", "category": "avpc", "source_layer": "AVPC"}}, {"type": "Feature", "id": 542, "geometry": {"type": "Point", "coordinates": [-8.231850360999882, 43.27086468686099]}, "properties": {"OBJECTID": 542, "NOMEAVPC": "Betanzos", "category": "avpc", "source_layer": "AVPC"}}, {"type": "Feature", "id": 543, "geometry": {"type": "Point", "coordinates": [-7.75275391843151, 41.9979794917605]}, "properties": {"OBJECTID": 543, "NOMEAVPC": "Os Blancos", "category": "avpc", "source_layer": "AVPC"}}, {"type": "Feature", "id": 544, "geometry": {"type": "Point", "coordinates": [-8.126878213151063, 43.00737851384856]}, "properties": {"OBJECTID": 544, "NOMEAVPC": "Boimorto", "category": "avpc", "source_layer": "AVPC"}}, {"type": "Feature", "id": 545, "geometry": {"type": "Point", "coordinates": [-8.881069741783136, 42.65956352015476]}, "properties": {"OBJECTID": 545, "NOMEAVPC": "Boiro", "category": "avpc", "source_layer": "AVPC"}}, {"type": "Feature", "id": 546, "geometry": {"type": "Point", "coordinates": [-7.928427568621291, 42.14095647373141]}, "properties": {"OBJECTID": 546, "NOMEAVPC": "A Bola", "category": "avpc", "source_layer": "AVPC"}}, {"type": "Feature", "id": 547, "geometry": {"type": "Point", "coordinates": [-7.0993478457397785, 42.307235680721455]}, "properties": {"OBJECTID": 547, "NOMEAVPC": "O Bolo", "category": "avpc", "source_layer": "AVPC"}}, {"type": "Feature", "id": 548, "geometry": {"type": "Point", "coordinates": [-8.415719042141111, 42.82730378212751]}, "properties": {"OBJECTID": 548, "NOMEAVPC": "Boqueixón", "category": "avpc", "source_layer": "AVPC"}}, {"type": "Feature", "id": 549, "geometry": {"type": "Point", "coordinates": [-8.78725000073214, 42.328388767695465]}, "properties": {"OBJECTID": 549, "NOMEAVPC": "Bueu", "category": "avpc", "source_layer": "AVPC"}}, {"type": "Feature", "id": 550, "geometry": {"type": "Point", "coordinates": [-7.357117314294791, 43.660628073891594]}, "properties": {"OBJECTID": 550, "NOMEAVPC": "Burela", "category": "avpc", "source_layer": "AVPC"}}, {"type": "Feature", "id": 551, "geometry": {"type": "Point", "coordinates": [-8.915922089255702, 43.2249406813507]}, "properties": {"OBJECTID": 551, "NOMEAVPC": "Cabana de Bergantiños", "category": "avpc", "source_layer": "AVPC"}}, {"type": "Feature", "id": 552, "geometry": {"type": "Point", "coordinates": [-8.161795000646785, 43.42010185259357]}, "properties": {"OBJECTID": 552, "NOMEAVPC": "Cabanas", "category": "avpc", "source_layer": "AVPC"}}, {"type": "Feature", "id": 553, "geometry": {"type": "Point", "coordinates": [-8.642416667920815, 42.60249987735437]}, "properties": {"OBJECTID": 553, "NOMEAVPC": "Caldas de Reis", "category": "avpc", "source_layer": "AVPC"}}, {"type": "Feature", "id": 554, "geometry": {"type": "Point", "coordinates": [-7.896538705041455, 41.94409440956272]}, "properties": {"OBJECTID": 554, "NOMEAVPC": "Calvos de Randín", "category": "avpc", "source_layer": "AVPC"}}, {"type": "Feature", "id": 555, "geometry": {"type": "Point", "coordinates": [-9.153339550270692, 43.14248390741652]}, "properties": {"OBJECTID": 555, "NOMEAVPC": "Camariñas", "category": "avpc", "source_layer": "AVPC"}}, {"type": "Feature", "id": 556, "geometry": {"type": "Point", "coordinates": [-8.77258333398807, 42.52702765809087]}, "properties": {"OBJECTID": 556, "NOMEAVPC": "Cambados", "category": "avpc", "source_layer": "AVPC"}}, {"type": "Feature", "id": 557, "geometry": {"type": "Point", "coordinates": [-8.354555259687992, 43.287445143630315]}, "properties": {"OBJECTID": 557, "NOMEAVPC": "Cambre", "category": "avpc", "source_layer": "AVPC"}}, {"type": "Feature", "id": 558, "geometry": {"type": "Point", "coordinates": [-8.5440833339947, 42.54052765730119]}, "properties": {"OBJECTID": 558, "NOMEAVPC": "Campo Lameiro", "category": "avpc", "source_layer": "AVPC"}}, {"type": "Feature", "id": 559, "geometry": {"type": "Point", "coordinates": [-8.763527778547806, 42.27522209751594]}, "properties": {"OBJECTID": 559, "NOMEAVPC": "Cangas do Morrazo", "category": "avpc", "source_layer": "AVPC"}}, {"type": "Feature", "id": 560, "geometry": {"type": "Point", "coordinates": [-8.16425848648717, 42.32003544621194]}, "properties": {"OBJECTID": 560, "NOMEAVPC": "Carballeda de Avia", "category": "avpc", "source_layer": "AVPC"}}, {"type": "Feature", "id": 561, "geometry": {"type": "Point", "coordinates": [-7.813407401118149, 42.53882166068849]}, "properties": {"OBJECTID": 561, "NOMEAVPC": "Carballedo", "category": "avpc", "source_layer": "AVPC"}}, {"type": "Feature", "id": 562, "geometry": {"type": "Point", "coordinates": [-8.069598708962804, 42.43158863523723]}, "properties": {"OBJECTID": 562, "NOMEAVPC": "O Carballiño", "category": "avpc", "source_layer": "AVPC"}}, {"type": "Feature", "id": 563, "geometry": {"type": "Point", "coordinates": [-8.687708979489333, 43.22079936800813]}, "properties": {"OBJECTID": 563, "NOMEAVPC": "Carballo", "category": "avpc", "source_layer": "AVPC"}}, {"type": "Feature", "id": 564, "geometry": {"type": "Point", "coordinates": [-7.86753539963099, 43.74010812676337]}, "properties": {"OBJECTID": 564, "NOMEAVPC": "Cariño", "category": "avpc", "source_layer": "AVPC"}}, {"type": "Feature", "id": 565, "geometry": {"type": "Point", "coordinates": [-9.088423580068731, 42.8222584682566]}, "properties": {"OBJECTID": 565, "NOMEAVPC": "Carnota", "category": "avpc", "source_layer": "AVPC"}}, {"type": "Feature", "id": 566, "geometry": {"type": "Point", "coordinates": [-8.361637970958466, 43.22874371776567]}, "properties": {"OBJECTID": 566, "NOMEAVPC": "Carral", "category": "avpc", "source_layer": "AVPC"}}, {"type": "Feature", "id": 567, "geometry": {"type": "Point", "coordinates": [-8.01943298977658, 42.22501165494132]}, "properties": {"OBJECTID": 567, "NOMEAVPC": "Cartelle", "category": "avpc", "source_layer": "AVPC"}}, {"type": "Feature", "id": 568, "geometry": {"type": "Point", "coordinates": [-8.043928271580274, 42.322887679778795]}, "properties": {"OBJECTID": 568, "NOMEAVPC": "Castrelo de Miño", "category": "avpc", "source_layer": "AVPC"}}, {"type": "Feature", "id": 569, "geometry": {"type": "Point", "coordinates": [-7.41494873930166, 42.37147825806412]}, "properties": {"OBJECTID": 569, "NOMEAVPC": "Castro Caldelas", "category": "avpc", "source_layer": "AVPC"}}, {"type": "Feature", "id": 570, "geometry": {"type": "Point", "coordinates": [-8.71052777867194, 42.67041654742061]}, "properties": {"OBJECTID": 570, "NOMEAVPC": "Catoira", "category": "avpc", "source_layer": "AVPC"}}, {"type": "Feature", "id": 571, "geometry": {"type": "Point", "coordinates": [-8.047522914242695, 43.65835552042122]}, "properties": {"OBJECTID": 571, "NOMEAVPC": "Cedeira", "category": "avpc", "source_layer": "AVPC"}}, {"type": "Feature", "id": 572, "geometry": {"type": "Point", "coordinates": [-9.186231044653766, 42.95736035998466]}, "properties": {"OBJECTID": 572, "NOMEAVPC": "Cee", "category": "avpc", "source_layer": "AVPC"}}, {"type": "Feature", "id": 573, "geometry": {"type": "Point", "coordinates": [-7.957962181250493, 42.15186761693078]}, "properties": {"OBJECTID": 573, "NOMEAVPC": "Celanova", "category": "avpc", "source_layer": "AVPC"}}, {"type": "Feature", "id": 574, "geometry": {"type": "Point", "coordinates": [-8.479106114500013, 43.188820294736]}, "properties": {"OBJECTID": 574, "NOMEAVPC": "Cerceda", "category": "avpc", "source_layer": "AVPC"}}, {"type": "Feature", "id": 575, "geometry": {"type": "Point", "coordinates": [-8.482000001540634, 42.471888767619994]}, "properties": {"OBJECTID": 575, "NOMEAVPC": "Cerdedo/Cotobade", "category": "avpc", "source_layer": "AVPC"}}, {"type": "Feature", "id": 576, "geometry": {"type": "Point", "coordinates": [-6.98362781245055, 42.78565277449983]}, "properties": {"OBJECTID": 576, "NOMEAVPC": "Cervantes", "category": "avpc", "source_layer": "AVPC"}}, {"type": "Feature", "id": 577, "geometry": {"type": "Point", "coordinates": [-7.410856151421095, 43.671895480919964]}, "properties": {"OBJECTID": 577, "NOMEAVPC": "Cervo", "category": "avpc", "source_layer": "AVPC"}}, {"type": "Feature", "id": 578, "geometry": {"type": "Point", "coordinates": [-7.386154832393376, 42.260385352360174]}, "properties": {"OBJECTID": 578, "NOMEAVPC": "Chandrexa de Queixa", "category": "avpc", "source_layer": "AVPC"}}, {"type": "Feature", "id": 579, "geometry": {"type": "Point", "coordinates": [-7.7657384790692126, 42.61074997469464]}, "properties": {"OBJECTID": 579, "NOMEAVPC": "Chantada", "category": "avpc", "source_layer": "AVPC"}}, {"type": "Feature", "id": 580, "geometry": {"type": "Point", "coordinates": [-7.838082690907648, 42.410660628763154]}, "properties": {"OBJECTID": 580, "NOMEAVPC": "Coles", "category": "avpc", "source_layer": "AVPC"}}, {"type": "Feature", "id": 581, "geometry": {"type": "Point", "coordinates": [-9.190515675588994, 42.94392534656994]}, "properties": {"OBJECTID": 581, "NOMEAVPC": "Corcubión", "category": "avpc", "source_layer": "AVPC"}}, {"type": "Feature", "id": 582, "geometry": {"type": "Point", "coordinates": [-8.74052405680033, 43.187407825202456]}, "properties": {"OBJECTID": 582, "NOMEAVPC": "Coristanco", "category": "avpc", "source_layer": "AVPC"}}, {"type": "Feature", "id": 583, "geometry": {"type": "Point", "coordinates": [-8.170353320663239, 42.206391427979874]}, "properties": {"OBJECTID": 583, "NOMEAVPC": "Cortegada", "category": "avpc", "source_layer": "AVPC"}}, {"type": "Feature", "id": 584, "geometry": {"type": "Point", "coordinates": [-7.594002248611098, 41.98812274209858]}, "properties": {"OBJECTID": 584, "NOMEAVPC": "Cualedro", "category": "avpc", "source_layer": "AVPC"}}, {"type": "Feature", "id": 585, "geometry": {"type": "Point", "coordinates": [-8.37909519598802, 43.320680664094255]}, "properties": {"OBJECTID": 585, "NOMEAVPC": "Culleredo", "category": "avpc", "source_layer": "AVPC"}}, {"type": "Feature", "id": 586, "geometry": {"type": "Point", "coordinates": [-8.571500000556998, 42.629083207365376]}, "properties": {"OBJECTID": 586, "NOMEAVPC": "Cuntis", "category": "avpc", "source_layer": "AVPC"}}, {"type": "Feature", "id": 587, "geometry": {"type": "Point", "coordinates": [-9.114962544679383, 43.00926436202661]}, "properties": {"OBJECTID": 587, "NOMEAVPC": "Dumbría", "category": "avpc", "source_layer": "AVPC"}}, {"type": "Feature", "id": 588, "geometry": {"type": "Point", "coordinates": [-8.118648300966786, 41.93278811688631]}, "properties": {"OBJECTID": 588, "NOMEAVPC": "Entrimo", "category": "avpc", "source_layer": "AVPC"}}, {"type": "Feature", "id": 589, "geometry": {"type": "Point", "coordinates": [-7.6964415869508755, 42.32530708785376]}, "properties": {"OBJECTID": 589, "NOMEAVPC": "Esgos", "category": "avpc", "source_layer": "AVPC"}}, {"type": "Feature", "id": 590, "geometry": {"type": "Point", "coordinates": [-8.511777779255643, 42.71441654752797]}, "properties": {"OBJECTID": 590, "NOMEAVPC": "Estrada, A", "category": "avpc", "source_layer": "AVPC"}}, {"type": "Feature", "id": 591, "geometry": {"type": "Point", "coordinates": [-8.157923104152166, 43.47264724094807]}, "properties": {"OBJECTID": 591, "NOMEAVPC": "Fene", "category": "avpc", "source_layer": "AVPC"}}, {"type": "Feature", "id": 592, "geometry": {"type": "Point", "coordinates": [-8.243002104018228, 43.49294488172416]}, "properties": {"OBJECTID": 592, "NOMEAVPC": "Ferrol", "category": "avpc", "source_layer": "AVPC"}}, {"type": "Feature", "id": 593, "geometry": {"type": "Point", "coordinates": [-9.261994102194393, 42.9095783904255]}, "properties": {"OBJECTID": 593, "NOMEAVPC": "Fisterra", "category": "avpc", "source_layer": "AVPC"}}, {"type": "Feature", "id": 594, "geometry": {"type": "Point", "coordinates": [-7.196129079328798, 42.589345822659745]}, "properties": {"OBJECTID": 594, "NOMEAVPC": "Folgoso do Courel", "category": "avpc", "source_layer": "AVPC"}}, {"type": "Feature", "id": 595, "geometry": {"type": "Point", "coordinates": [-7.078225133471568, 43.11627019710766]}, "properties": {"OBJECTID": 595, "NOMEAVPC": "A Fonsagrada", "category": "avpc", "source_layer": "AVPC"}}, {"type": "Feature", "id": 596, "geometry": {"type": "Point", "coordinates": [-8.354916667783382, 42.58513876753647]}, "properties": {"OBJECTID": 596, "NOMEAVPC": "Forcarei", "category": "avpc", "source_layer": "AVPC"}}, {"type": "Feature", "id": 597, "geometry": {"type": "Point", "coordinates": [-7.257278276264686, 43.56545445172497]}, "properties": {"OBJECTID": 597, "NOMEAVPC": "Foz", "category": "avpc", "source_layer": "AVPC"}}, {"type": "Feature", "id": 598, "geometry": {"type": "Point", "coordinates": [-7.779680222861778, 43.03156090041782]}, "properties": {"OBJECTID": 598, "NOMEAVPC": "Friol", "category": "avpc", "source_layer": "AVPC"}}, {"type": "Feature", "id": 599, "geometry": {"type": "Point", "coordinates": [-8.091557149642833, 42.19277412855377]}, "properties": {"OBJECTID": 599, "NOMEAVPC": "Gomesende", "category": "avpc", "source_layer": "AVPC"}}, {"type": "Feature", "id": 600, "geometry": {"type": "Point", "coordinates": [-7.1256157511838865, 42.05927945225486]}, "properties": {"OBJECTID": 600, "NOMEAVPC": "A Gudiña", "category": "avpc", "source_layer": "AVPC"}}, {"type": "Feature", "id": 601, "geometry": {"type": "Point", "coordinates": [-7.897780556686893, 43.179149567289464]}, "properties": {"OBJECTID": 601, "NOMEAVPC": "Guitiriz", "category": "avpc", "source_layer": "AVPC"}}, {"type": "Feature", "id": 602, "geometry": {"type": "Point", "coordinates": [-7.3637870039924485, 42.656522008079556]}, "properties": {"OBJECTID": 602, "NOMEAVPC": "O Incio", "category": "avpc", "source_layer": "AVPC"}}, {"type": "Feature", "id": 603, "geometry": {"type": "Point", "coordinates": [-8.117305558239776, 42.65869431704161]}, "properties": {"OBJECTID": 603, "NOMEAVPC": "Lalín", "category": "avpc", "source_layer": "AVPC"}}, {"type": "Feature", "id": 604, "geometry": {"type": "Point", "coordinates": [-8.613838873102587, 43.25712020712547]}, "properties": {"OBJECTID": 604, "NOMEAVPC": "A Laracha", "category": "avpc", "source_layer": "AVPC"}}, {"type": "Feature", "id": 605, "geometry": {"type": "Point", "coordinates": [-7.163245921629883, 42.346683935726794]}, "properties": {"OBJECTID": 605, "NOMEAVPC": "Larouco", "category": "avpc", "source_layer": "AVPC"}}, {"type": "Feature", "id": 606, "geometry": {"type": "Point", "coordinates": [-9.003902963784133, 43.21745255160072]}, "properties": {"OBJECTID": 606, "NOMEAVPC": "Laxe", "category": "avpc", "source_layer": "AVPC"}}, {"type": "Feature", "id": 607, "geometry": {"type": "Point", "coordinates": [-7.459892678786065, 42.061038405449445]}, "properties": {"OBJECTID": 607, "NOMEAVPC": "Laza", "category": "avpc", "source_layer": "AVPC"}}, {"type": "Feature", "id": 608, "geometry": {"type": "Point", "coordinates": [-8.08108776637328, 41.90155344738692]}, "properties": {"OBJECTID": 608, "NOMEAVPC": "Lobios", "category": "avpc", "source_layer": "AVPC"}}, {"type": "Feature", "id": 609, "geometry": {"type": "Point", "coordinates": [-7.298560310893501, 43.47085851079727]}, "properties": {"OBJECTID": 609, "NOMEAVPC": "Lourenzá", "category": "avpc", "source_layer": "AVPC"}}, {"type": "Feature", "id": 610, "geometry": {"type": "Point", "coordinates": [-8.86527960238483, 42.78526420820586]}, "properties": {"OBJECTID": 610, "NOMEAVPC": "Lousame", "category": "avpc", "source_layer": "AVPC"}}, {"type": "Feature", "id": 611, "geometry": {"type": "Point", "coordinates": [-7.54278109810566, 42.99970259690516]}, "properties": {"OBJECTID": 611, "NOMEAVPC": "Lugo", "category": "avpc", "source_layer": "AVPC"}}, {"type": "Feature", "id": 612, "geometry": {"type": "Point", "coordinates": [-7.653474588061817, 42.27121253856264]}, "properties": {"OBJECTID": 612, "NOMEAVPC": "Maceda", "category": "avpc", "source_layer": "AVPC"}}, {"type": "Feature", "id": 613, "geometry": {"type": "Point", "coordinates": [-8.810689198641157, 43.302020370198335]}, "properties": {"OBJECTID": 613, "NOMEAVPC": "Malpica", "category": "avpc", "source_layer": "AVPC"}}, {"type": "Feature", "id": 614, "geometry": {"type": "Point", "coordinates": [-7.955954802823568, 42.14673649400697]}, "properties": {"OBJECTID": 614, "NOMEAVPC": "Mancomunidade de Terras de Celanova (Cartelle, Celanova, Gomesende, A Merca, Pontedeva, Quintela de Leirado, Ramirás e Verea)", "category": "avpc", "source_layer": "AVPC"}}, {"type": "Feature", "id": 615, "geometry": {"type": "Point", "coordinates": [-8.123155581786653, 42.33461527239775]}, "properties": {"OBJECTID": 615, "NOMEAVPC": "Mancomunidade do Ribeiro (Arnoia, Beade, Cenlle, Cortegada e Leiro)", "category": "avpc", "source_layer": "AVPC"}}, {"type": "Feature", "id": 616, "geometry": {"type": "Point", "coordinates": [-8.455388889531513, 42.2343887675994]}, "properties": {"OBJECTID": 616, "NOMEAVPC": "Oitaven/Tea (Mondariz, Mondariz-balneario, A Lama, Fornelos de Montes e Covelo)", "category": "avpc", "source_layer": "AVPC"}}, {"type": "Feature", "id": 617, "geometry": {"type": "Point", "coordinates": [-7.234219011788861, 42.30991236992649]}, "properties": {"OBJECTID": 617, "NOMEAVPC": "Manzaneda", "category": "avpc", "source_layer": "AVPC"}}, {"type": "Feature", "id": 618, "geometry": {"type": "Point", "coordinates": [-7.705909766856456, 43.73621994211625]}, "properties": {"OBJECTID": 618, "NOMEAVPC": "Mañón", "category": "avpc", "source_layer": "AVPC"}}, {"type": "Feature", "id": 619, "geometry": {"type": "Point", "coordinates": [-8.704972222563063, 42.38913876770858]}, "properties": {"OBJECTID": 619, "NOMEAVPC": "Marín", "category": "avpc", "source_layer": "AVPC"}}, {"type": "Feature", "id": 620, "geometry": {"type": "Point", "coordinates": [-7.509118612220873, 43.686158161557096]}, "properties": {"OBJECTID": 620, "NOMEAVPC": "A Mariña", "category": "avpc", "source_layer": "AVPC"}}, {"type": "Feature", "id": 621, "geometry": {"type": "Point", "coordinates": [-7.292247492617201, 43.212835844456556]}, "properties": {"OBJECTID": 621, "NOMEAVPC": "Meira", "category": "avpc", "source_layer": "AVPC"}}, {"type": "Feature", "id": 622, "geometry": {"type": "Point", "coordinates": [-8.73947222199905, 42.513860987637024]}, "properties": {"OBJECTID": 622, "NOMEAVPC": "Meis", "category": "avpc", "source_layer": "AVPC"}}, {"type": "Feature", "id": 623, "geometry": {"type": "Point", "coordinates": [-8.0163775630503, 42.915125826330126]}, "properties": {"OBJECTID": 623, "NOMEAVPC": "Melide", "category": "avpc", "source_layer": "AVPC"}}, {"type": "Feature", "id": 624, "geometry": {"type": "Point", "coordinates": [-8.216163383361174, 42.257233253044106]}, "properties": {"OBJECTID": 624, "NOMEAVPC": "Melón", "category": "avpc", "source_layer": "AVPC"}}, {"type": "Feature", "id": 625, "geometry": {"type": "Point", "coordinates": [-7.045374953601293, 42.01358392248817]}, "properties": {"OBJECTID": 625, "NOMEAVPC": "A Mezquita", "category": "avpc", "source_layer": "AVPC"}}, {"type": "Feature", "id": 626, "geometry": {"type": "Point", "coordinates": [-8.20753750515832, 43.35322387159855]}, "properties": {"OBJECTID": 626, "NOMEAVPC": "Miño", "category": "avpc", "source_layer": "AVPC"}}, {"type": "Feature", "id": 627, "geometry": {"type": "Point", "coordinates": [-8.736388889816546, 42.28194431756794]}, "properties": {"OBJECTID": 627, "NOMEAVPC": "Moaña", "category": "avpc", "source_layer": "AVPC"}}, {"type": "Feature", "id": 628, "geometry": {"type": "Point", "coordinates": [-7.370504050046304, 43.42797527437445]}, "properties": {"OBJECTID": 628, "NOMEAVPC": "Mondoñedo", "category": "avpc", "source_layer": "AVPC"}}, {"type": "Feature", "id": 629, "geometry": {"type": "Point", "coordinates": [-7.516785865374503, 42.522739969331866]}, "properties": {"OBJECTID": 629, "NOMEAVPC": "Monforte de Lemos 159", "category": "avpc", "source_layer": "AVPC"}}, {"type": "Feature", "id": 630, "geometry": {"type": "Point", "coordinates": [-7.502598061283176, 42.275316456923996]}, "properties": {"OBJECTID": 630, "NOMEAVPC": "Acuática e Sub. da MA. Ribeira Sacra", "category": "avpc", "source_layer": "AVPC"}}, {"type": "Feature", "id": 631, "geometry": {"type": "Point", "coordinates": [-7.81678102506807, 42.79806054001421]}, "properties": {"OBJECTID": 631, "NOMEAVPC": "Monterroso", "category": "avpc", "source_layer": "AVPC"}}, {"type": "Feature", "id": 632, "geometry": {"type": "Point", "coordinates": [-8.589694444907664, 42.58341654762626]}, "properties": {"OBJECTID": 632, "NOMEAVPC": "Moraña", "category": "avpc", "source_layer": "AVPC"}}, {"type": "Feature", "id": 633, "geometry": {"type": "Point", "coordinates": [-8.652111111274536, 42.20977765768925]}, "properties": {"OBJECTID": 633, "NOMEAVPC": "Mos", "category": "avpc", "source_layer": "AVPC"}}, {"type": "Feature", "id": 634, "geometry": {"type": "Point", "coordinates": [-7.969313209562297, 41.95813013995311]}, "properties": {"OBJECTID": 634, "NOMEAVPC": "Muiños", "category": "avpc", "source_layer": "AVPC"}}, {"type": "Feature", "id": 635, "geometry": {"type": "Point", "coordinates": [-9.216863161312196, 43.106888333327156]}, "properties": {"OBJECTID": 635, "NOMEAVPC": "Muxía", "category": "avpc", "source_layer": "AVPC"}}, {"type": "Feature", "id": 636, "geometry": {"type": "Point", "coordinates": [-8.188739649615762, 43.51193053546887]}, "properties": {"OBJECTID": 636, "NOMEAVPC": "Narón", "category": "avpc", "source_layer": "AVPC"}}, {"type": "Feature", "id": 637, "geometry": {"type": "Point", "coordinates": [-8.15100073062985, 43.51226618176936]}, "properties": {"OBJECTID": 637, "NOMEAVPC": "Neda", "category": "avpc", "source_layer": "AVPC"}}, {"type": "Feature", "id": 638, "geometry": {"type": "Point", "coordinates": [-8.734747005968515, 42.9096249174049]}, "properties": {"OBJECTID": 638, "NOMEAVPC": "Negreira", "category": "avpc", "source_layer": "AVPC"}}, {"type": "Feature", "id": 639, "geometry": {"type": "Point", "coordinates": [-6.893771370115848, 43.13445306559261]}, "properties": {"OBJECTID": 639, "NOMEAVPC": "Negueira de Muñiz", "category": "avpc", "source_layer": "AVPC"}}, {"type": "Feature", "id": 640, "geometry": {"type": "Point", "coordinates": [-7.7047455485858825, 42.403212744066735]}, "properties": {"OBJECTID": 640, "NOMEAVPC": "Nogueira de Ramuín", "category": "avpc", "source_layer": "AVPC"}}, {"type": "Feature", "id": 641, "geometry": {"type": "Point", "coordinates": [-8.875566607934312, 42.7999834740703]}, "properties": {"OBJECTID": 641, "NOMEAVPC": "Noia", "category": "avpc", "source_layer": "AVPC"}}, {"type": "Feature", "id": 642, "geometry": {"type": "Point", "coordinates": [-8.31599572582423, 43.325597662945185]}, "properties": {"OBJECTID": 642, "NOMEAVPC": "Oleiros", "category": "avpc", "source_layer": "AVPC"}}, {"type": "Feature", "id": 643, "geometry": {"type": "Point", "coordinates": [-8.397804019222, 43.091709299492486]}, "properties": {"OBJECTID": 643, "NOMEAVPC": "Ordes", "category": "avpc", "source_layer": "AVPC"}}, {"type": "Feature", "id": 644, "geometry": {"type": "Point", "coordinates": [-8.441355688036113, 42.969098155312125]}, "properties": {"OBJECTID": 644, "NOMEAVPC": "Oroso", "category": "avpc", "source_layer": "AVPC"}}, {"type": "Feature", "id": 645, "geometry": {"type": "Point", "coordinates": [-7.877954452271727, 42.348079532671186]}, "properties": {"OBJECTID": 645, "NOMEAVPC": "Ourense", "category": "avpc", "source_layer": "AVPC"}}, {"type": "Feature", "id": 646, "geometry": {"type": "Point", "coordinates": [-7.641168561714928, 43.56413489176707]}, "properties": {"OBJECTID": 646, "NOMEAVPC": "Ourol", "category": "avpc", "source_layer": "AVPC"}}, {"type": "Feature", "id": 647, "geometry": {"type": "Point", "coordinates": [-8.909715223449044, 42.844155959925686]}, "properties": {"OBJECTID": 647, "NOMEAVPC": "Outes", "category": "avpc", "source_layer": "AVPC"}}, {"type": "Feature", "id": 648, "geometry": {"type": "Point", "coordinates": [-8.16841161301405, 43.30916377836132]}, "properties": {"OBJECTID": 648, "NOMEAVPC": "Paderne", "category": "avpc", "source_layer": "AVPC"}}, {"type": "Feature", "id": 649, "geometry": {"type": "Point", "coordinates": [-7.75110976414944, 42.27992449293858]}, "properties": {"OBJECTID": 649, "NOMEAVPC": "Paderne de Allariz", "category": "avpc", "source_layer": "AVPC"}}, {"type": "Feature", "id": 650, "geometry": {"type": "Point", "coordinates": [-7.869204462372675, 42.87322548833039]}, "properties": {"OBJECTID": 650, "NOMEAVPC": "Palas de Rei", "category": "avpc", "source_layer": "AVPC"}}, {"type": "Feature", "id": 651, "geometry": {"type": "Point", "coordinates": [-7.571457977821841, 42.383329300881805]}, "properties": {"OBJECTID": 651, "NOMEAVPC": "Parada de Sil", "category": "avpc", "source_layer": "AVPC"}}, {"type": "Feature", "id": 652, "geometry": {"type": "Point", "coordinates": [-7.786861495323183, 42.33917355824491]}, "properties": {"OBJECTID": 652, "NOMEAVPC": "Pereiro de Aguiar", "category": "avpc", "source_layer": "AVPC"}}, {"type": "Feature", "id": 653, "geometry": {"type": "Point", "coordinates": [-7.124504697629706, 42.382530688188744]}, "properties": {"OBJECTID": 653, "NOMEAVPC": "Petín", "category": "avpc", "source_layer": "AVPC"}}, {"type": "Feature", "id": 654, "geometry": {"type": "Point", "coordinates": [-8.363666549596847, 42.904291472308756]}, "properties": {"OBJECTID": 654, "NOMEAVPC": "O Pino", "category": "avpc", "source_layer": "AVPC"}}, {"type": "Feature", "id": 655, "geometry": {"type": "Point", "coordinates": [-7.996606487498199, 42.48818587602012]}, "properties": {"OBJECTID": 655, "NOMEAVPC": "Piñor", "category": "avpc", "source_layer": "AVPC"}}, {"type": "Feature", "id": 656, "geometry": {"type": "Point", "coordinates": [-7.39414905812106, 42.55897291396327]}, "properties": {"OBJECTID": 656, "NOMEAVPC": "A Pobra de Brollón", "category": "avpc", "source_layer": "AVPC"}}, {"type": "Feature", "id": 657, "geometry": {"type": "Point", "coordinates": [-7.251857381172963, 42.34066276283644]}, "properties": {"OBJECTID": 657, "NOMEAVPC": "Pobra de Trives", "category": "avpc", "source_layer": "AVPC"}}, {"type": "Feature", "id": 658, "geometry": {"type": "Point", "coordinates": [-8.961611587432452, 42.60318772776334]}, "properties": {"OBJECTID": 658, "NOMEAVPC": "A Pobra do Caramiñal", "category": "avpc", "source_layer": "AVPC"}}, {"type": "Feature", "id": 659, "geometry": {"type": "Point", "coordinates": [-8.691000000365335, 42.43886098748875]}, "properties": {"OBJECTID": 659, "NOMEAVPC": "Poio", "category": "avpc", "source_layer": "AVPC"}}, {"type": "Feature", "id": 660, "geometry": {"type": "Point", "coordinates": [-7.353522029617697, 43.12984772373227]}, "properties": {"OBJECTID": 660, "NOMEAVPC": "Pol", "category": "avpc", "source_layer": "AVPC"}}, {"type": "Feature", "id": 661, "geometry": {"type": "Point", "coordinates": [-8.500555556955913, 42.1703887681309]}, "properties": {"OBJECTID": 661, "NOMEAVPC": "Ponteareas", "category": "avpc", "source_layer": "AVPC"}}, {"type": "Feature", "id": 662, "geometry": {"type": "Point", "coordinates": [-8.171891091324444, 43.40801953339965]}, "properties": {"OBJECTID": 662, "NOMEAVPC": "Pontedeume", "category": "avpc", "source_layer": "AVPC"}}, {"type": "Feature", "id": 663, "geometry": {"type": "Point", "coordinates": [-7.198149762840244, 43.34633010734928]}, "properties": {"OBJECTID": 663, "NOMEAVPC": "A Pontenova", "category": "avpc", "source_layer": "AVPC"}}, {"type": "Feature", "id": 664, "geometry": {"type": "Point", "coordinates": [-7.854167814709125, 43.45177614097632]}, "properties": {"OBJECTID": 664, "NOMEAVPC": "As Pontes", "category": "avpc", "source_layer": "AVPC"}}, {"type": "Feature", "id": 665, "geometry": {"type": "Point", "coordinates": [-8.640722222499267, 42.43819431752714]}, "properties": {"OBJECTID": 665, "NOMEAVPC": "Pontevedra", "category": "avpc", "source_layer": "AVPC"}}, {"type": "Feature", "id": 666, "geometry": {"type": "Point", "coordinates": [-7.847297630162306, 42.01874691860637]}, "properties": {"OBJECTID": 666, "NOMEAVPC": "Porqueira", "category": "avpc", "source_layer": "AVPC"}}, {"type": "Feature", "id": 667, "geometry": {"type": "Point", "coordinates": [-8.631888889814684, 42.141555437891824]}, "properties": {"OBJECTID": 667, "NOMEAVPC": "Porriño", "category": "avpc", "source_layer": "AVPC"}}, {"type": "Feature", "id": 668, "geometry": {"type": "Point", "coordinates": [-8.659138890048958, 42.58355543775817]}, "properties": {"OBJECTID": 668, "NOMEAVPC": "Portas", "category": "avpc", "source_layer": "AVPC"}}, {"type": "Feature", "id": 669, "geometry": {"type": "Point", "coordinates": [-9.007645413660835, 42.725223534425645]}, "properties": {"OBJECTID": 669, "NOMEAVPC": "Porto do Son", "category": "avpc", "source_layer": "AVPC"}}, {"type": "Feature", "id": 670, "geometry": {"type": "Point", "coordinates": [-7.61697146725355, 42.80558297415891]}, "properties": {"OBJECTID": 670, "NOMEAVPC": "Portomarín", "category": "avpc", "source_layer": "AVPC"}}, {"type": "Feature", "id": 671, "geometry": {"type": "Point", "coordinates": [-7.280995359264185, 42.47386765115817]}, "properties": {"OBJECTID": 671, "NOMEAVPC": "Quiroga", "category": "avpc", "source_layer": "AVPC"}}, {"type": "Feature", "id": 672, "geometry": {"type": "Point", "coordinates": [-7.831744184889657, 42.08163443587704]}, "properties": {"OBJECTID": 672, "NOMEAVPC": "Rairiz de Veiga", "category": "avpc", "source_layer": "AVPC"}}, {"type": "Feature", "id": 673, "geometry": {"type": "Point", "coordinates": [-8.612666668127925, 42.28311098810369]}, "properties": {"OBJECTID": 673, "NOMEAVPC": "Redondela", "category": "avpc", "source_layer": "AVPC"}}, {"type": "Feature", "id": 674, "geometry": {"type": "Point", "coordinates": [-8.813493235333894, 42.65037883095315]}, "properties": {"OBJECTID": 674, "NOMEAVPC": "Rianxo", "category": "avpc", "source_layer": "AVPC"}}, {"type": "Feature", "id": 675, "geometry": {"type": "Point", "coordinates": [-8.113974174294563, 42.30610369731133]}, "properties": {"OBJECTID": 675, "NOMEAVPC": "Ribadavia", "category": "avpc", "source_layer": "AVPC"}}, {"type": "Feature", "id": 676, "geometry": {"type": "Point", "coordinates": [-7.04318971370041, 43.535851029690846]}, "properties": {"OBJECTID": 676, "NOMEAVPC": "Ribadeo", "category": "avpc", "source_layer": "AVPC"}}, {"type": "Feature", "id": 677, "geometry": {"type": "Point", "coordinates": [-8.767583333076983, 42.50302765751092]}, "properties": {"OBJECTID": 677, "NOMEAVPC": "Ribadumia", "category": "avpc", "source_layer": "AVPC"}}, {"type": "Feature", "id": 678, "geometry": {"type": "Point", "coordinates": [-7.287520454962131, 42.466409950860395]}, "properties": {"OBJECTID": 678, "NOMEAVPC": "Ribas de Sil", "category": "avpc", "source_layer": "AVPC"}}, {"type": "Feature", "id": 679, "geometry": {"type": "Point", "coordinates": [-8.993592710166565, 42.555069791740586]}, "properties": {"OBJECTID": 679, "NOMEAVPC": "Ribeira", "category": "avpc", "source_layer": "AVPC"}}, {"type": "Feature", "id": 680, "geometry": {"type": "Point", "coordinates": [-7.202728622648258, 43.20047865966013]}, "properties": {"OBJECTID": 680, "NOMEAVPC": "Ribeira de Piquín", "category": "avpc", "source_layer": "AVPC"}}, {"type": "Feature", "id": 681, "geometry": {"type": "Point", "coordinates": [-7.282521873944278, 41.974225388637244]}, "properties": {"OBJECTID": 681, "NOMEAVPC": "Riós", "category": "avpc", "source_layer": "AVPC"}}, {"type": "Feature", "id": 682, "geometry": {"type": "Point", "coordinates": [-7.259464405574567, 43.34032113693225]}, "properties": {"OBJECTID": 682, "NOMEAVPC": "Riotorto", "category": "avpc", "source_layer": "AVPC"}}, {"type": "Feature", "id": 683, "geometry": {"type": "Point", "coordinates": [-7.9498333353611805, 42.64958320694794]}, "properties": {"OBJECTID": 683, "NOMEAVPC": "Rodeiro", "category": "avpc", "source_layer": "AVPC"}}, {"type": "Feature", "id": 684, "geometry": {"type": "Point", "coordinates": [-8.690012071354584, 42.76066767947423]}, "properties": {"OBJECTID": 684, "NOMEAVPC": "Rois", "category": "avpc", "source_layer": "AVPC"}}, {"type": "Feature", "id": 685, "geometry": {"type": "Point", "coordinates": [-8.837222222496276, 41.9371109877536]}, "properties": {"OBJECTID": 685, "NOMEAVPC": "Rosal, O", "category": "avpc", "source_layer": "AVPC"}}, {"type": "Feature", "id": 686, "geometry": {"type": "Point", "coordinates": [-7.111351246241766, 42.39380123483144]}, "properties": {"OBJECTID": 686, "NOMEAVPC": "A Rúa", "category": "avpc", "source_layer": "AVPC"}}, {"type": "Feature", "id": 687, "geometry": {"type": "Point", "coordinates": [-8.292350504604624, 43.325960189480405]}, "properties": {"OBJECTID": 687, "NOMEAVPC": "Sada", "category": "avpc", "source_layer": "AVPC"}}, {"type": "Feature", "id": 688, "geometry": {"type": "Point", "coordinates": [-8.562055557037759, 42.10591654801585]}, "properties": {"OBJECTID": 688, "NOMEAVPC": "Salceda de Caselas", "category": "avpc", "source_layer": "AVPC"}}, {"type": "Feature", "id": 689, "geometry": {"type": "Point", "coordinates": [-8.072205848185108, 42.374277295183965]}, "properties": {"OBJECTID": 689, "NOMEAVPC": "San Amaro", "category": "avpc", "source_layer": "AVPC"}}, {"type": "Feature", "id": 690, "geometry": {"type": "Point", "coordinates": [-7.873955640854591, 42.29826670902135]}, "properties": {"OBJECTID": 690, "NOMEAVPC": "San Cibrao das Viñas", "category": "avpc", "source_layer": "AVPC"}}, {"type": "Feature", "id": 691, "geometry": {"type": "Point", "coordinates": [-7.299104716554231, 42.37047425700108]}, "properties": {"OBJECTID": 691, "NOMEAVPC": "San Xoán de Río", "category": "avpc", "source_layer": "AVPC"}}, {"type": "Feature", "id": 692, "geometry": {"type": "Point", "coordinates": [-7.757544422601891, 42.10953754967893]}, "properties": {"OBJECTID": 692, "NOMEAVPC": "Sandiás", "category": "avpc", "source_layer": "AVPC"}}, {"type": "Feature", "id": 693, "geometry": {"type": "Point", "coordinates": [-8.805708406774423, 43.03100420387066]}, "properties": {"OBJECTID": 693, "NOMEAVPC": "Santa Comba", "category": "avpc", "source_layer": "AVPC"}}, {"type": "Feature", "id": 694, "geometry": {"type": "Point", "coordinates": [-8.51594611066726, 42.883388045385395]}, "properties": {"OBJECTID": 694, "NOMEAVPC": "Santiago de Compostela", "category": "avpc", "source_layer": "AVPC"}}, {"type": "Feature", "id": 695, "geometry": {"type": "Point", "coordinates": [-7.602944902089141, 42.08750626249525]}, "properties": {"OBJECTID": 695, "NOMEAVPC": "Sarreaus", "category": "avpc", "source_layer": "AVPC"}}, {"type": "Feature", "id": 696, "geometry": {"type": "Point", "coordinates": [-7.409546467623354, 42.7776659229324]}, "properties": {"OBJECTID": 696, "NOMEAVPC": "Sarria", "category": "avpc", "source_layer": "AVPC"}}, {"type": "Feature", "id": 697, "geometry": {"type": "Point", "coordinates": [-7.640090366391889, 42.58609305314291]}, "properties": {"OBJECTID": 697, "NOMEAVPC": "O Saviñao", "category": "avpc", "source_layer": "AVPC"}}, {"type": "Feature", "id": 698, "geometry": {"type": "Point", "coordinates": [-7.586745233482522, 42.462016615296264]}, "properties": {"OBJECTID": 698, "NOMEAVPC": "Sober", "category": "avpc", "source_layer": "AVPC"}}, {"type": "Feature", "id": 699, "geometry": {"type": "Point", "coordinates": [-8.02139423184026, 43.04004158739994]}, "properties": {"OBJECTID": 699, "NOMEAVPC": "Sobrado dos Monxes", "category": "avpc", "source_layer": "AVPC"}}, {"type": "Feature", "id": 700, "geometry": {"type": "Point", "coordinates": [-7.761964851076982, 42.71621706785328]}, "properties": {"OBJECTID": 700, "NOMEAVPC": "Taboada", "category": "avpc", "source_layer": "AVPC"}}, {"type": "Feature", "id": 701, "geometry": {"type": "Point", "coordinates": [-8.537632996422655, 42.786724321377385]}, "properties": {"OBJECTID": 701, "NOMEAVPC": "Teo", "category": "avpc", "source_layer": "AVPC"}}, {"type": "Feature", "id": 702, "geometry": {"type": "Point", "coordinates": [-7.959400862540053, 42.31456713055591]}, "properties": {"OBJECTID": 702, "NOMEAVPC": "Toén", "category": "avpc", "source_layer": "AVPC"}}, {"type": "Feature", "id": 703, "geometry": {"type": "Point", "coordinates": [-8.753222222836646, 41.94197209786035]}, "properties": {"OBJECTID": 703, "NOMEAVPC": "Tomiño", "category": "avpc", "source_layer": "AVPC"}}, {"type": "Feature", "id": 704, "geometry": {"type": "Point", "coordinates": [-8.307417861171142, 42.8658368838712]}, "properties": {"OBJECTID": 704, "NOMEAVPC": "Touro", "category": "avpc", "source_layer": "AVPC"}}, {"type": "Feature", "id": 705, "geometry": {"type": "Point", "coordinates": [-7.193025220731142, 43.44730497826101]}, "properties": {"OBJECTID": 705, "NOMEAVPC": "Trabada", "category": "avpc", "source_layer": "AVPC"}}, {"type": "Feature", "id": 706, "geometry": {"type": "Point", "coordinates": [-7.611143739370703, 42.02076552824599]}, "properties": {"OBJECTID": 706, "NOMEAVPC": "Trasmiras", "category": "avpc", "source_layer": "AVPC"}}, {"type": "Feature", "id": 707, "geometry": {"type": "Point", "coordinates": [-8.653688275081576, 43.02074503104625]}, "properties": {"OBJECTID": 707, "NOMEAVPC": "Val do Dubra", "category": "avpc", "source_layer": "AVPC"}}, {"type": "Feature", "id": 708, "geometry": {"type": "Point", "coordinates": [-8.046426686397785, 42.5667327676713]}, "properties": {"OBJECTID": 708, "NOMEAVPC": "Dozón", "category": "avpc", "source_layer": "AVPC"}}, {"type": "Feature", "id": 709, "geometry": {"type": "Point", "coordinates": [-7.239715069616522, 42.75625103315515]}, "properties": {"OBJECTID": 709, "NOMEAVPC": "Triacastela", "category": "avpc", "source_layer": "AVPC"}}, {"type": "Feature", "id": 710, "geometry": {"type": "Point", "coordinates": [-8.350502283226863, 42.09891544281168]}, "properties": {"OBJECTID": 710, "NOMEAVPC": "Ribeira do Miño", "category": "avpc", "source_layer": "AVPC"}}]}