{"type": "FeatureCollection", "features": [{"type": "Feature", "id": 1, "geometry": {"type": "Point", "coordinates": [-8.420715580035857, 43.34829082589817]}, "properties": {"OBJECTID": 1, "NOMEBOMBEIROS": "A Coruña", "category": "bombeiros", "source_layer": "Bombeiros"}}, {"type": "Feature", "id": 2, "geometry": {"type": "Point", "coordinates": [-8.507162654020798, 43.311300112423936]}, "properties": {"OBJECTID": 2, "NOMEBOMBEIROS": "Arteixo", "category": "bombeiros", "source_layer": "Bombeiros"}}, {"type": "Feature", "id": 3, "geometry": {"type": "Point", "coordinates": [-8.162094815828, 42.93264752117705]}, "properties": {"OBJECTID": 3, "NOMEBOMBEIROS": "Arzúa-Terras de Melide", "category": "bombeiros", "source_layer": "Bombeiros"}}, {"type": "Feature", "id": 4, "geometry": {"type": "Point", "coordinates": [-8.230998601950128, 43.27000352548794]}, "properties": {"OBJECTID": 4, "NOMEBOMBEIROS": "Betanzos", "category": "bombeiros", "source_layer": "Bombeiros"}}, {"type": "Feature", "id": 5, "geometry": {"type": "Point", "coordinates": [-8.880302511495328, 42.659788875758025]}, "properties": {"OBJECTID": 5, "NOMEBOMBEIROS": "Barbanza-Boiro", "category": "bombeiros", "source_layer": "Bombeiros"}}, {"type": "Feature", "id": 6, "geometry": {"type": "Point", "coordinates": [-8.686975503176528, 43.23660965318142]}, "properties": {"OBJECTID": 6, "NOMEBOMBEIROS": "Bergantiños", "category": "bombeiros", "source_layer": "Bombeiros"}}, {"type": "Feature", "id": 7, "geometry": {"type": "Point", "coordinates": [-9.189768282748018, 42.98685016598282]}, "properties": {"OBJECTID": 7, "NOMEBOMBEIROS": "Costa da Morte-Cee", "category": "bombeiros", "source_layer": "Bombeiros"}}, {"type": "Feature", "id": 8, "geometry": {"type": "Point", "coordinates": [-7.853695846256257, 43.42183798773577]}, "properties": {"OBJECTID": 8, "NOMEBOMBEIROS": "Eume", "category": "bombeiros", "source_layer": "Bombeiros"}}, {"type": "Feature", "id": 9, "geometry": {"type": "Point", "coordinates": [-8.205000209047446, 43.48900287402435]}, "properties": {"OBJECTID": 9, "NOMEBOMBEIROS": "Ferrol", "category": "bombeiros", "source_layer": "Bombeiros"}}, {"type": "Feature", "id": 10, "geometry": {"type": "Point", "coordinates": [-8.398190184200386, 43.091171036315394]}, "properties": {"OBJECTID": 10, "NOMEBOMBEIROS": "Ordes", "category": "bombeiros", "source_layer": "Bombeiros"}}, {"type": "Feature", "id": 11, "geometry": {"type": "Point", "coordinates": [-8.999536992164815, 42.571811714433125]}, "properties": {"OBJECTID": 11, "NOMEBOMBEIROS": "Barbanza-Ribeira", "category": "bombeiros", "source_layer": "Bombeiros"}}, {"type": "Feature", "id": 12, "geometry": {"type": "Point", "coordinates": [-8.534005539169643, 42.88700203899883]}, "properties": {"OBJECTID": 12, "NOMEBOMBEIROS": "Santiago", "category": "bombeiros", "source_layer": "Bombeiros"}}, {"type": "Feature", "id": 13, "geometry": {"type": "Point", "coordinates": [-8.80593428587122, 43.0310938882626]}, "properties": {"OBJECTID": 13, "NOMEBOMBEIROS": "Xallas-A Barcala", "category": "bombeiros", "source_layer": "Bombeiros"}}, {"type": "Feature", "id": 14, "geometry": {"type": "Point", "coordinates": [-8.195412130610308, 43.533038550800526]}, "properties": {"OBJECTID": 14, "NOMEBOMBEIROS": "SPEIS Narón", "category": "bombeiros", "source_layer": "Bombeiros"}}, {"type": "Feature", "id": 15, "geometry": {"type": "Point", "coordinates": [-7.251038830137052, 43.53930157179997]}, "properties": {"OBJECTID": 15, "NOMEBOMBEIROS": "Barreiros", "category": "bombeiros", "source_layer": "Bombeiros"}}, {"type": "Feature", "id": 16, "geometry": {"type": "Point", "coordinates": [-7.775911161092903, 42.588714488336024]}, "properties": {"OBJECTID": 16, "NOMEBOMBEIROS": "Chantada", "category": "bombeiros", "source_layer": "Bombeiros"}}, {"type": "Feature", "id": 17, "geometry": {"type": "Point", "coordinates": [-7.57000479926633, 43.03300383570828]}, "properties": {"OBJECTID": 17, "NOMEBOMBEIROS": "Lugo", "category": "bombeiros", "source_layer": "Bombeiros"}}, {"type": "Feature", "id": 18, "geometry": {"type": "Point", "coordinates": [-7.523987927391477, 42.540024603777944]}, "properties": {"OBJECTID": 18, "NOMEBOMBEIROS": "Monforte de Lemos", "category": "bombeiros", "source_layer": "Bombeiros"}}, {"type": "Feature", "id": 19, "geometry": {"type": "Point", "coordinates": [-7.419781237846258, 42.776105663367176]}, "properties": {"OBJECTID": 19, "NOMEBOMBEIROS": "Sarria", "category": "bombeiros", "source_layer": "Bombeiros"}}, {"type": "Feature", "id": 20, "geometry": {"type": "Point", "coordinates": [-7.660664465264969, 43.308436825905694]}, "properties": {"OBJECTID": 20, "NOMEBOMBEIROS": "Vilalba", "category": "bombeiros", "source_layer": "Bombeiros"}}, {"type": "Feature", "id": 21, "geometry": {"type": "Point", "coordinates": [-7.592285598705082, 43.67661527047744]}, "properties": {"OBJECTID": 21, "NOMEBOMBEIROS": "Viveiro", "category": "bombeiros", "source_layer": "Bombeiros"}}, {"type": "Feature", "id": 22, "geometry": {"type": "Point", "coordinates": [-7.464911691468614, 41.92966920589533]}, "properties": {"OBJECTID": 22, "NOMEBOMBEIROS": "Verín", "category": "bombeiros", "source_layer": "Bombeiros"}}, {"type": "Feature", "id": 23, "geometry": {"type": "Point", "coordinates": [-7.136260337269127, 42.38889498024241]}, "properties": {"OBJECTID": 23, "NOMEBOMBEIROS": "Valdeorras", "category": "bombeiros", "source_layer": "Bombeiros"}}, {"type": "Feature", "id": 24, "geometry": {"type": "Point", "coordinates": [-7.734491791544189, 42.078073814891226]}, "properties": {"OBJECTID": 24, "NOMEBOMBEIROS": "A Limia", "category": "bombeiros", "source_layer": "Bombeiros"}}, {"type": "Feature", "id": 26, "geometry": {"type": "Point", "coordinates": [-7.820445319842853, 42.289157902910745]}, "properties": {"OBJECTID": 26, "NOMEBOMBEIROS": "Pol San Cibrao", "category": "bombeiros", "source_layer": "Bombeiros"}}, {"type": "Feature", "id": 27, "geometry": {"type": "Point", "coordinates": [-7.87850438393764, 42.348283726281295]}, "properties": {"OBJECTID": 27, "NOMEBOMBEIROS": "Municipal Ourense", "category": "bombeiros", "source_layer": "Bombeiros"}}, {"type": "Feature", "id": 28, "geometry": {"type": "Point", "coordinates": [-8.054617131690236, 42.43917552598127]}, "properties": {"OBJECTID": 28, "NOMEBOMBEIROS": "O Carballiño", "category": "bombeiros", "source_layer": "Bombeiros"}}, {"type": "Feature", "id": 29, "geometry": {"type": "Point", "coordinates": [-8.224996271937291, 42.69399940848802]}, "properties": {"OBJECTID": 29, "NOMEBOMBEIROS": "Deza e Tabeirós-Terra de Montes", "category": "bombeiros", "source_layer": "Bombeiros"}}, {"type": "Feature", "id": 30, "geometry": {"type": "Point", "coordinates": [-8.790983339739663, 42.30631419396284]}, "properties": {"OBJECTID": 30, "NOMEBOMBEIROS": "O Morrazo", "category": "bombeiros", "source_layer": "Bombeiros"}}, {"type": "Feature", "id": 31, "geometry": {"type": "Point", "coordinates": [-8.651994150613037, 42.43699689577651]}, "properties": {"OBJECTID": 31, "NOMEBOMBEIROS": "Pontevedra", "category": "bombeiros", "source_layer": "Bombeiros"}}, {"type": "Feature", "id": 32, "geometry": {"type": "Point", "coordinates": [-8.626197352197417, 42.11431305658074]}, "properties": {"OBJECTID": 32, "NOMEBOMBEIROS": "Baixo Miño-Condado-Louriña", "category": "bombeiros", "source_layer": "Bombeiros"}}, {"type": "Feature", "id": 33, "geometry": {"type": "Point", "coordinates": [-8.779999119074237, 42.5229962181882]}, "properties": {"OBJECTID": 33, "NOMEBOMBEIROS": "O Salnés-Ribadumia", "category": "bombeiros", "source_layer": "Bombeiros"}}, {"type": "Feature", "id": 34, "geometry": {"type": "Point", "coordinates": [-8.770998049478775, 42.593998176321264]}, "properties": {"OBJECTID": 34, "NOMEBOMBEIROS": "O Salnés-Vilagarcía", "category": "bombeiros", "source_layer": "Bombeiros"}}, {"type": "Feature", "id": 35, "geometry": {"type": "Point", "coordinates": [-8.686995472721174, 42.248996104778236]}, "properties": {"OBJECTID": 35, "NOMEBOMBEIROS": "Vigo - 1", "category": "bombeiros", "source_layer": "Bombeiros"}}, {"type": "Feature", "id": 36, "geometry": {"type": "Point", "coordinates": [-8.73923770302606, 42.22345885799076]}, "properties": {"OBJECTID": 36, "NOMEBOMBEIROS": "Vigo - 2", "category": "bombeiros", "source_layer": "Bombeiros"}}]}