{"type": "FeatureCollection", "features": [{"type": "Feature", "id": 1, "geometry": {"type": "Point", "coordinates": [-8.414253898095781, 43.346442956304756]}, "properties": {"OBJECTID": 1, "UNIDADES": "C.O.S. / CMDA. CORUÑA, A / COMPAÑÍA DE A CORUÑA / GRUPO INFORMACIÓN COMANDANCIA A CORUÑA  / S. M. P. A CORUNA /  U.H.E.L.- 71 OFICINAS EN LA ZONA /  ZONA GALICIA / PATRULLA SEPRONA A CORUÑA", "category": "garda_civil", "source_layer": "Garda Civil"}}, {"type": "Feature", "id": 2, "geometry": {"type": "Point", "coordinates": [-8.68704936547556, 43.216627450409305]}, "properties": {"OBJECTID": 2, "UNIDADES": "COMPAÑÍA DE CARBALLO / POSTO P. DE CARBALLO", "category": "garda_civil", "source_layer": "Garda Civil"}}, {"type": "Feature", "id": 3, "geometry": {"type": "Point", "coordinates": [-8.23263862636367, 43.49041008908815]}, "properties": {"OBJECTID": 3, "UNIDADES": "COMPAÑÍA DE FERROL / DESTO. FERROL", "category": "garda_civil", "source_layer": "Garda Civil"}}, {"type": "Feature", "id": 4, "geometry": {"type": "Point", "coordinates": [-8.873982274618028, 42.79448252005047]}, "properties": {"OBJECTID": 4, "UNIDADES": "COMPAÑÍA DE NOIA / POSTO DE NOIA / PATRULLA SEPRONA NOIA", "category": "garda_civil", "source_layer": "Garda Civil"}}, {"type": "Feature", "id": 5, "geometry": {"type": "Point", "coordinates": [-8.524107710483191, 42.89081676668328]}, "properties": {"OBJECTID": 5, "UNIDADES": "COMPAÑÍA DE SANTIAGO DE COMPOSTELA / DESTO. COMPOSTELA / POSTO DE SANTIAGO DE COMPOSTELA /PATRULLA SEPRONA SANTIAGO DE COMPOSTELA", "category": "garda_civil", "source_layer": "Garda Civil"}}, {"type": "Feature", "id": 6, "geometry": {"type": "Point", "coordinates": [-9.19470647645923, 42.94833586872747]}, "properties": {"OBJECTID": 6, "UNIDADES": "DESTO. CORCUBION / POSTO DE CORCUBION / PATRULLA SEPRONA CORCUBIÓN", "category": "garda_civil", "source_layer": "Garda Civil"}}, {"type": "Feature", "id": 7, "geometry": {"type": "Point", "coordinates": [-7.857604699242363, 43.68627836928134]}, "properties": {"OBJECTID": 7, "UNIDADES": "PATRULLA SEPRONA ORTIGUEIRA / POSTO DE ORTIGUEIRA", "category": "garda_civil", "source_layer": "Garda Civil"}}, {"type": "Feature", "id": 8, "geometry": {"type": "Point", "coordinates": [-7.87358656722333, 43.73830225536417]}, "properties": {"OBJECTID": 8, "UNIDADES": "POSTO AUXILIAR DE CARIÑO", "category": "garda_civil", "source_layer": "Garda Civil"}}, {"type": "Feature", "id": 9, "geometry": {"type": "Point", "coordinates": [-8.939406370507095, 42.60340913281215]}, "properties": {"OBJECTID": 9, "UNIDADES": "POSTO AUXILIAR DE POBRA DO CARAMIÑAL", "category": "garda_civil", "source_layer": "Garda Civil"}}, {"type": "Feature", "id": 10, "geometry": {"type": "Point", "coordinates": [-8.307830628454578, 42.86784059263499]}, "properties": {"OBJECTID": 10, "UNIDADES": "POSTO AUXILIAR DE TOURO", "category": "garda_civil", "source_layer": "Garda Civil"}}, {"type": "Feature", "id": 11, "geometry": {"type": "Point", "coordinates": [-8.287269702849233, 43.22658644831296]}, "properties": {"OBJECTID": 11, "UNIDADES": "POSTO DE ABEGONDO", "category": "garda_civil", "source_layer": "Garda Civil"}}, {"type": "Feature", "id": 12, "geometry": {"type": "Point", "coordinates": [-8.36392818808233, 42.904046037943104]}, "properties": {"OBJECTID": 12, "UNIDADES": "POSTO DE ARCA", "category": "garda_civil", "source_layer": "Garda Civil"}}, {"type": "Feature", "id": 13, "geometry": {"type": "Point", "coordinates": [-8.15711487446706, 42.929386064412256]}, "properties": {"OBJECTID": 13, "UNIDADES": "POSTO DE ARZUA", "category": "garda_civil", "source_layer": "Garda Civil"}}, {"type": "Feature", "id": 14, "geometry": {"type": "Point", "coordinates": [-7.846216946289145, 43.45238232511857]}, "properties": {"OBJECTID": 14, "UNIDADES": "POSTO DE AS PONTES", "category": "garda_civil", "source_layer": "Garda Civil"}}, {"type": "Feature", "id": 15, "geometry": {"type": "Point", "coordinates": [-8.212446057456, 43.279388958627884]}, "properties": {"OBJECTID": 15, "UNIDADES": "POSTO DE BETANZOS", "category": "garda_civil", "source_layer": "Garda Civil"}}, {"type": "Feature", "id": 16, "geometry": {"type": "Point", "coordinates": [-8.133105581632462, 43.001955517621035]}, "properties": {"OBJECTID": 16, "UNIDADES": "POSTO DE BOIMORTO", "category": "garda_civil", "source_layer": "Garda Civil"}}, {"type": "Feature", "id": 17, "geometry": {"type": "Point", "coordinates": [-8.678655465892353, 42.86378686440997]}, "properties": {"OBJECTID": 17, "UNIDADES": "POSTO DE BRION", "category": "garda_civil", "source_layer": "Garda Civil"}}, {"type": "Feature", "id": 18, "geometry": {"type": "Point", "coordinates": [-9.180977306904529, 43.13013617899397]}, "properties": {"OBJECTID": 18, "UNIDADES": "POSTO DE CAMARIÑAS", "category": "garda_civil", "source_layer": "Garda Civil"}}, {"type": "Feature", "id": 19, "geometry": {"type": "Point", "coordinates": [-8.360064088033297, 43.22975175581037]}, "properties": {"OBJECTID": 19, "UNIDADES": "POSTO DE CARRAL", "category": "garda_civil", "source_layer": "Garda Civil"}}, {"type": "Feature", "id": 20, "geometry": {"type": "Point", "coordinates": [-8.047989052634678, 43.65731934378792]}, "properties": {"OBJECTID": 20, "UNIDADES": "POSTO DE CEDEIRA", "category": "garda_civil", "source_layer": "Garda Civil"}}, {"type": "Feature", "id": 21, "geometry": {"type": "Point", "coordinates": [-8.379402245707315, 43.321045303120755]}, "properties": {"OBJECTID": 21, "UNIDADES": "POSTO DE CULLEREDO / POSTO P. DE CULLEREDO", "category": "garda_civil", "source_layer": "Garda Civil"}}, {"type": "Feature", "id": 22, "geometry": {"type": "Point", "coordinates": [-8.145033099756429, 43.12195768340734]}, "properties": {"OBJECTID": 22, "UNIDADES": "POSTO DE CURTIS", "category": "garda_civil", "source_layer": "Garda Civil"}}, {"type": "Feature", "id": 23, "geometry": {"type": "Point", "coordinates": [-8.161654861578715, 43.467830612942386]}, "properties": {"OBJECTID": 23, "UNIDADES": "POSTO DE FENE", "category": "garda_civil", "source_layer": "Garda Civil"}}, {"type": "Feature", "id": 24, "geometry": {"type": "Point", "coordinates": [-8.247030696705046, 43.47864751753454]}, "properties": {"OBJECTID": 24, "UNIDADES": "POSTO DE FERROL (FISCAL)", "category": "garda_civil", "source_layer": "Garda Civil"}}, {"type": "Feature", "id": 25, "geometry": {"type": "Point", "coordinates": [-8.059706130886086, 43.28553052611915]}, "properties": {"OBJECTID": 25, "UNIDADES": "POSTO DE IRIXOA", "category": "garda_civil", "source_layer": "Garda Civil"}}, {"type": "Feature", "id": 26, "geometry": {"type": "Point", "coordinates": [-8.591154198441151, 43.247792351120076]}, "properties": {"OBJECTID": 26, "UNIDADES": "POSTO DE LARACHA", "category": "garda_civil", "source_layer": "Garda Civil"}}, {"type": "Feature", "id": 27, "geometry": {"type": "Point", "coordinates": [-9.004726116362535, 43.218588046072796]}, "properties": {"OBJECTID": 27, "UNIDADES": "POSTO DE LAXE", "category": "garda_civil", "source_layer": "Garda Civil"}}, {"type": "Feature", "id": 28, "geometry": {"type": "Point", "coordinates": [-8.811138278876367, 43.32280785428168]}, "properties": {"OBJECTID": 28, "UNIDADES": "POSTO DE MALPICA", "category": "garda_civil", "source_layer": "Garda Civil"}}, {"type": "Feature", "id": 29, "geometry": {"type": "Point", "coordinates": [-8.01517235847962, 42.92018222348835]}, "properties": {"OBJECTID": 29, "UNIDADES": "POSTO DE MELIDE", "category": "garda_civil", "source_layer": "Garda Civil"}}, {"type": "Feature", "id": 30, "geometry": {"type": "Point", "coordinates": [-8.205625883421602, 43.34473881381323]}, "properties": {"OBJECTID": 30, "UNIDADES": "POSTO DE MIÑO", "category": "garda_civil", "source_layer": "Garda Civil"}}, {"type": "Feature", "id": 31, "geometry": {"type": "Point", "coordinates": [-8.255301586477431, 43.45907955936383]}, "properties": {"OBJECTID": 31, "UNIDADES": "POSTO DE MUGARDOS", "category": "garda_civil", "source_layer": "Garda Civil"}}, {"type": "Feature", "id": 32, "geometry": {"type": "Point", "coordinates": [-9.068090473438806, 42.7886181011767]}, "properties": {"OBJECTID": 32, "UNIDADES": "POSTO DE MUROS", "category": "garda_civil", "source_layer": "Garda Civil"}}, {"type": "Feature", "id": 33, "geometry": {"type": "Point", "coordinates": [-9.218134949678412, 43.100964725926545]}, "properties": {"OBJECTID": 33, "UNIDADES": "POSTO DE MUXIA", "category": "garda_civil", "source_layer": "Garda Civil"}}, {"type": "Feature", "id": 34, "geometry": {"type": "Point", "coordinates": [-8.733749479438094, 42.91168350146783]}, "properties": {"OBJECTID": 34, "UNIDADES": "POSTO DE NEGREIRA", "category": "garda_civil", "source_layer": "Garda Civil"}}, {"type": "Feature", "id": 35, "geometry": {"type": "Point", "coordinates": [-8.405455994844285, 43.07629837010996]}, "properties": {"OBJECTID": 35, "UNIDADES": "POSTO DE ORDES", "category": "garda_civil", "source_layer": "Garda Civil"}}, {"type": "Feature", "id": 36, "geometry": {"type": "Point", "coordinates": [-8.907296972418868, 42.84175767751411]}, "properties": {"OBJECTID": 36, "UNIDADES": "POSTO DE OUTES", "category": "garda_civil", "source_layer": "Garda Civil"}}, {"type": "Feature", "id": 37, "geometry": {"type": "Point", "coordinates": [-8.657259833306009, 42.7433765507729]}, "properties": {"OBJECTID": 37, "UNIDADES": "POSTO DE PADRON", "category": "garda_civil", "source_layer": "Garda Civil"}}, {"type": "Feature", "id": 38, "geometry": {"type": "Point", "coordinates": [-8.901136360395974, 43.243967277450345]}, "properties": {"OBJECTID": 38, "UNIDADES": "POSTO DE PONTECESO", "category": "garda_civil", "source_layer": "Garda Civil"}}, {"type": "Feature", "id": 39, "geometry": {"type": "Point", "coordinates": [-8.164039621286587, 43.399645705320715]}, "properties": {"OBJECTID": 39, "UNIDADES": "POSTO DE PONTEDEUME / PATRULLA SEPRONA PONTEDEUME", "category": "garda_civil", "source_layer": "Garda Civil"}}, {"type": "Feature", "id": 40, "geometry": {"type": "Point", "coordinates": [-9.00647519517381, 42.72462403221926]}, "properties": {"OBJECTID": 40, "UNIDADES": "POSTO DE PORTO DO SON", "category": "garda_civil", "source_layer": "Garda Civil"}}, {"type": "Feature", "id": 41, "geometry": {"type": "Point", "coordinates": [-8.815816271338111, 42.653263944526344]}, "properties": {"OBJECTID": 41, "UNIDADES": "POSTO DE RIANXO", "category": "garda_civil", "source_layer": "Garda Civil"}}, {"type": "Feature", "id": 42, "geometry": {"type": "Point", "coordinates": [-8.257262444243523, 43.353430547740814]}, "properties": {"OBJECTID": 42, "UNIDADES": "POSTO DE SADA", "category": "garda_civil", "source_layer": "Garda Civil"}}, {"type": "Feature", "id": 43, "geometry": {"type": "Point", "coordinates": [-8.072859210717189, 43.53277424321308]}, "properties": {"OBJECTID": 43, "UNIDADES": "POSTO DE SAN SADURNIÑO", "category": "garda_civil", "source_layer": "Garda Civil"}}, {"type": "Feature", "id": 44, "geometry": {"type": "Point", "coordinates": [-8.798691429148452, 43.0310551497648]}, "properties": {"OBJECTID": 44, "UNIDADES": "POSTO DE SANTA COMBA", "category": "garda_civil", "source_layer": "Garda Civil"}}, {"type": "Feature", "id": 45, "geometry": {"type": "Point", "coordinates": [-8.453988555020032, 42.96013577855645]}, "properties": {"OBJECTID": 45, "UNIDADES": "POSTO DE SIGÜEIRO", "category": "garda_civil", "source_layer": "Garda Civil"}}, {"type": "Feature", "id": 46, "geometry": {"type": "Point", "coordinates": [-8.141365936358234, 43.611893793643524]}, "properties": {"OBJECTID": 46, "UNIDADES": "POSTO DE VALDOVIÑO", "category": "garda_civil", "source_layer": "Garda Civil"}}, {"type": "Feature", "id": 47, "geometry": {"type": "Point", "coordinates": [-8.494039923235528, 43.31612615556041]}, "properties": {"OBJECTID": 47, "UNIDADES": "POSTO P. DE ARTEIXO / PATRULLA SEPRONA ARTEIXO", "category": "garda_civil", "source_layer": "Garda Civil"}}, {"type": "Feature", "id": 48, "geometry": {"type": "Point", "coordinates": [-8.880913851387993, 42.651843401296674]}, "properties": {"OBJECTID": 48, "UNIDADES": "POSTO P. DE BOIRO", "category": "garda_civil", "source_layer": "Garda Civil"}}, {"type": "Feature", "id": 49, "geometry": {"type": "Point", "coordinates": [-8.356878605463754, 43.31854935008947]}, "properties": {"OBJECTID": 49, "UNIDADES": "POSTO P. DE CAMBRE", "category": "garda_civil", "source_layer": "Garda Civil"}}, {"type": "Feature", "id": 50, "geometry": {"type": "Point", "coordinates": [-8.57537367894674, 42.842977388084506]}, "properties": {"OBJECTID": 50, "UNIDADES": "POSTO P. DE MILLADOIRO-AMES", "category": "garda_civil", "source_layer": "Garda Civil"}}, {"type": "Feature", "id": 51, "geometry": {"type": "Point", "coordinates": [-8.325866645156507, 43.33271038160525]}, "properties": {"OBJECTID": 51, "UNIDADES": "POSTO P. DE OLEIROS", "category": "garda_civil", "source_layer": "Garda Civil"}}, {"type": "Feature", "id": 52, "geometry": {"type": "Point", "coordinates": [-8.404210936214113, 43.36288199506093]}, "properties": {"OBJECTID": 52, "UNIDADES": "SECCION FISCAL MUELLE DE GARAS", "category": "garda_civil", "source_layer": "Garda Civil"}}, {"type": "Feature", "id": 53, "geometry": {"type": "Point", "coordinates": [-8.36444541420726, 43.328789707392396]}, "properties": {"OBJECTID": 53, "UNIDADES": "SECTOR TRAF. CORUÑA /  SUBSECTOR TRAF. A CORUÑA / DESTO. A CORUÑA", "category": "garda_civil", "source_layer": "Garda Civil"}}, {"type": "Feature", "id": 54, "geometry": {"type": "Point", "coordinates": [-8.381559947962183, 43.30227929799174]}, "properties": {"OBJECTID": 54, "UNIDADES": "DESTACAMENTO SEGURIDAD AEROPUERTO DE ALVEDRO / U.H.E.L.- 71", "category": "garda_civil", "source_layer": "Garda Civil"}}, {"type": "Feature", "id": 55, "geometry": {"type": "Point", "coordinates": [-7.986503233850137, 43.158236430717274]}, "properties": {"OBJECTID": 55, "UNIDADES": "UNIDAD SEGURIDAD CENTRO PENITENCIARIO TEIXEIRO", "category": "garda_civil", "source_layer": "Garda Civil"}}, {"type": "Feature", "id": 56, "geometry": {"type": "Point", "coordinates": [-7.553861582695746, 43.006485127432434]}, "properties": {"OBJECTID": 56, "UNIDADES": "C.O.S. / CMDA. LUGO / COMPAÑIA DE LUGO / DESTO. LUGO/ POSTO DE LUGO / SUBSECTOR TRAF. LUGO", "category": "garda_civil", "source_layer": "Garda Civil"}}, {"type": "Feature", "id": 57, "geometry": {"type": "Point", "coordinates": [-7.366006253851368, 43.65786875333936]}, "properties": {"OBJECTID": 57, "UNIDADES": "COMPAÑIA DE BURELA / DESTO. BURELA / POSTO DE BURELA", "category": "garda_civil", "source_layer": "Garda Civil"}}, {"type": "Feature", "id": 58, "geometry": {"type": "Point", "coordinates": [-7.504187066120389, 42.53272123574255]}, "properties": {"OBJECTID": 58, "UNIDADES": "COMPAÑIA DE MONFORTE DE LEMOS / DESTO. MONFORTE DE LEMOS / POSTO DE MONFORTE DE LEMOS", "category": "garda_civil", "source_layer": "Garda Civil"}}, {"type": "Feature", "id": 59, "geometry": {"type": "Point", "coordinates": [-7.674064482905988, 43.294689200209476]}, "properties": {"OBJECTID": 59, "UNIDADES": "COMPAÑIA DE VILALBA / DESTO. VILLALBA / POSTO DE VILALBA", "category": "garda_civil", "source_layer": "Garda Civil"}}, {"type": "Feature", "id": 62, "geometry": {"type": "Point", "coordinates": [-7.360096029315518, 42.658618361534685]}, "properties": {"OBJECTID": 62, "UNIDADES": "POSTO AUXILIAR DE INCIO", "category": "garda_civil", "source_layer": "Garda Civil"}}, {"type": "Feature", "id": 64, "geometry": {"type": "Point", "coordinates": [-7.588596818092744, 42.460430527549]}, "properties": {"OBJECTID": 64, "UNIDADES": "POSTO AUXILIAR DE SOBER", "category": "garda_civil", "source_layer": "Garda Civil"}}, {"type": "Feature", "id": 65, "geometry": {"type": "Point", "coordinates": [-7.475965164088853, 43.36477410931711]}, "properties": {"OBJECTID": 65, "UNIDADES": "POSTO DE ABADIN", "category": "garda_civil", "source_layer": "Garda Civil"}}, {"type": "Feature", "id": 66, "geometry": {"type": "Point", "coordinates": [-7.751088195366697, 43.174203466327235]}, "properties": {"OBJECTID": 66, "UNIDADES": "POSTO DE BAAMONDE", "category": "garda_civil", "source_layer": "Garda Civil"}}, {"type": "Feature", "id": 67, "geometry": {"type": "Point", "coordinates": [-7.231151564303343, 43.54045092095894]}, "properties": {"OBJECTID": 67, "UNIDADES": "POSTO DE BARREIROS", "category": "garda_civil", "source_layer": "Garda Civil"}}, {"type": "Feature", "id": 68, "geometry": {"type": "Point", "coordinates": [-7.160556719678707, 42.85228302692918]}, "properties": {"OBJECTID": 68, "UNIDADES": "POSTO DE BECERREA", "category": "garda_civil", "source_layer": "Garda Civil"}}, {"type": "Feature", "id": 69, "geometry": {"type": "Point", "coordinates": [-7.479884254706824, 42.62847511854111]}, "properties": {"OBJECTID": 69, "UNIDADES": "POSTO DE BOVEDA", "category": "garda_civil", "source_layer": "Garda Civil"}}, {"type": "Feature", "id": 70, "geometry": {"type": "Point", "coordinates": [-7.810374866527048, 42.53783230717498]}, "properties": {"OBJECTID": 70, "UNIDADES": "POSTO DE CARBALLEDO", "category": "garda_civil", "source_layer": "Garda Civil"}}, {"type": "Feature", "id": 71, "geometry": {"type": "Point", "coordinates": [-7.395678296037928, 43.20603852876181]}, "properties": {"OBJECTID": 71, "UNIDADES": "POSTO DE CASTRO DE REI", "category": "garda_civil", "source_layer": "Garda Civil"}}, {"type": "Feature", "id": 72, "geometry": {"type": "Point", "coordinates": [-7.321933820555968, 43.03184395173137]}, "properties": {"OBJECTID": 72, "UNIDADES": "POSTO DE CASTROVERDE", "category": "garda_civil", "source_layer": "Garda Civil"}}, {"type": "Feature", "id": 73, "geometry": {"type": "Point", "coordinates": [-7.769874702442865, 42.61269719709434]}, "properties": {"OBJECTID": 73, "UNIDADES": "POSTO DE CHANTADA", "category": "garda_civil", "source_layer": "Garda Civil"}}, {"type": "Feature", "id": 74, "geometry": {"type": "Point", "coordinates": [-7.55525833185772, 43.23407596081096]}, "properties": {"OBJECTID": 74, "UNIDADES": "POSTO DE COSPEITO", "category": "garda_civil", "source_layer": "Garda Civil"}}, {"type": "Feature", "id": 75, "geometry": {"type": "Point", "coordinates": [-7.6376920295574475, 42.58809805462822]}, "properties": {"OBJECTID": 75, "UNIDADES": "POSTO DE ESCAIRON", "category": "garda_civil", "source_layer": "Garda Civil"}}, {"type": "Feature", "id": 76, "geometry": {"type": "Point", "coordinates": [-7.437054425377075, 43.54918774812014]}, "properties": {"OBJECTID": 76, "UNIDADES": "POSTO DE FERREIRA VALLE ORO", "category": "garda_civil", "source_layer": "Garda Civil"}}, {"type": "Feature", "id": 77, "geometry": {"type": "Point", "coordinates": [-7.066191272812429, 43.128902076380406]}, "properties": {"OBJECTID": 77, "UNIDADES": "POSTO DE FONSAGRADA", "category": "garda_civil", "source_layer": "Garda Civil"}}, {"type": "Feature", "id": 78, "geometry": {"type": "Point", "coordinates": [-7.261550306491331, 43.56328314511567]}, "properties": {"OBJECTID": 78, "UNIDADES": "POSTO DE FOZ", "category": "garda_civil", "source_layer": "Garda Civil"}}, {"type": "Feature", "id": 79, "geometry": {"type": "Point", "coordinates": [-7.794499280424672, 43.03275473377633]}, "properties": {"OBJECTID": 79, "UNIDADES": "POSTO DE FRIOL", "category": "garda_civil", "source_layer": "Garda Civil"}}, {"type": "Feature", "id": 80, "geometry": {"type": "Point", "coordinates": [-7.813635517599664, 43.35534048802868]}, "properties": {"OBJECTID": 80, "UNIDADES": "POSTO DE XERMADE", "category": "garda_civil", "source_layer": "Garda Civil"}}, {"type": "Feature", "id": 81, "geometry": {"type": "Point", "coordinates": [-7.885782768984309, 43.18010423352284]}, "properties": {"OBJECTID": 81, "UNIDADES": "POSTO DE GUITIRIZ", "category": "garda_civil", "source_layer": "Garda Civil"}}, {"type": "Feature", "id": 82, "geometry": {"type": "Point", "coordinates": [-7.700617154999167, 42.88801780190156]}, "properties": {"OBJECTID": 82, "UNIDADES": "POSTO DE GUNTIN", "category": "garda_civil", "source_layer": "Garda Civil"}}, {"type": "Feature", "id": 83, "geometry": {"type": "Point", "coordinates": [-7.508570801461322, 43.687278060315506]}, "properties": {"OBJECTID": 83, "UNIDADES": "POSTO DE XOVE", "category": "garda_civil", "source_layer": "Garda Civil"}}, {"type": "Feature", "id": 84, "geometry": {"type": "Point", "coordinates": [-7.292861547561086, 43.220238131877736]}, "properties": {"OBJECTID": 84, "UNIDADES": "POSTO DE MEIRA", "category": "garda_civil", "source_layer": "Garda Civil"}}, {"type": "Feature", "id": 85, "geometry": {"type": "Point", "coordinates": [-7.357219970276446, 43.433379574103455]}, "properties": {"OBJECTID": 85, "UNIDADES": "POSTO DE MONDOÑEDO", "category": "garda_civil", "source_layer": "Garda Civil"}}, {"type": "Feature", "id": 86, "geometry": {"type": "Point", "coordinates": [-7.838634726919037, 42.79142982626147]}, "properties": {"OBJECTID": 86, "UNIDADES": "POSTO DE MONTERROSO", "category": "garda_civil", "source_layer": "Garda Civil"}}, {"type": "Feature", "id": 87, "geometry": {"type": "Point", "coordinates": [-7.7258651557095925, 43.46102421632693]}, "properties": {"OBJECTID": 87, "UNIDADES": "POSTO DE MURAS", "category": "garda_civil", "source_layer": "Garda Civil"}}, {"type": "Feature", "id": 88, "geometry": {"type": "Point", "coordinates": [-7.002833151803426, 42.96674879343515]}, "properties": {"OBJECTID": 88, "UNIDADES": "POSTO DE NAVIA DE SUARNA", "category": "garda_civil", "source_layer": "Garda Civil"}}, {"type": "Feature", "id": 89, "geometry": {"type": "Point", "coordinates": [-7.8703058104904375, 42.87215899914642]}, "properties": {"OBJECTID": 89, "UNIDADES": "POSTO DE PALAS DE REI", "category": "garda_civil", "source_layer": "Garda Civil"}}, {"type": "Feature", "id": 90, "geometry": {"type": "Point", "coordinates": [-7.633053319545974, 42.50479420652954]}, "properties": {"OBJECTID": 90, "UNIDADES": "POSTO DE PANTON", "category": "garda_civil", "source_layer": "Garda Civil"}}, {"type": "Feature", "id": 91, "geometry": {"type": "Point", "coordinates": [-7.342170217900019, 43.29846231621967]}, "properties": {"OBJECTID": 91, "UNIDADES": "POSTO DE PASTORIZA", "category": "garda_civil", "source_layer": "Garda Civil"}}, {"type": "Feature", "id": 92, "geometry": {"type": "Point", "coordinates": [-7.022079366490097, 42.72422314980328]}, "properties": {"OBJECTID": 92, "UNIDADES": "POSTO DE PIEDRAFITA", "category": "garda_civil", "source_layer": "Garda Civil"}}, {"type": "Feature", "id": 93, "geometry": {"type": "Point", "coordinates": [-7.445258251959825, 42.862263135113125]}, "properties": {"OBJECTID": 93, "UNIDADES": "POSTO DE A POBRA DE SAN XIAO", "category": "garda_civil", "source_layer": "Garda Civil"}}, {"type": "Feature", "id": 94, "geometry": {"type": "Point", "coordinates": [-7.1905357928796745, 43.35011051699277]}, "properties": {"OBJECTID": 94, "UNIDADES": "POSTO DE A PONTENOVA", "category": "garda_civil", "source_layer": "Garda Civil"}}, {"type": "Feature", "id": 95, "geometry": {"type": "Point", "coordinates": [-7.6174588354830615, 42.80742776544435]}, "properties": {"OBJECTID": 95, "UNIDADES": "POSTO DE PORTOMARIN", "category": "garda_civil", "source_layer": "Garda Civil"}}, {"type": "Feature", "id": 96, "geometry": {"type": "Point", "coordinates": [-7.267551620167712, 42.47653683025689]}, "properties": {"OBJECTID": 96, "UNIDADES": "POSTO DE QUIROGA", "category": "garda_civil", "source_layer": "Garda Civil"}}, {"type": "Feature", "id": 97, "geometry": {"type": "Point", "coordinates": [-7.62984612931037, 43.11937759485161]}, "properties": {"OBJECTID": 97, "UNIDADES": "POSTO DE RABADE", "category": "garda_civil", "source_layer": "Garda Civil"}}, {"type": "Feature", "id": 98, "geometry": {"type": "Point", "coordinates": [-7.055311883270793, 43.53817581172743]}, "properties": {"OBJECTID": 98, "UNIDADES": "POSTO DE RIBADEO", "category": "garda_civil", "source_layer": "Garda Civil"}}, {"type": "Feature", "id": 99, "geometry": {"type": "Point", "coordinates": [-7.3268892358909685, 42.72994111424261]}, "properties": {"OBJECTID": 99, "UNIDADES": "POSTO DE SAMOS", "category": "garda_civil", "source_layer": "Garda Civil"}}, {"type": "Feature", "id": 100, "geometry": {"type": "Point", "coordinates": [-7.059259580237287, 42.866657126427974]}, "properties": {"OBJECTID": 100, "UNIDADES": "POSTO DE SAN ROMAN DE CERVANTES", "category": "garda_civil", "source_layer": "Garda Civil"}}, {"type": "Feature", "id": 101, "geometry": {"type": "Point", "coordinates": [-7.407460292070945, 42.771510550737126]}, "properties": {"OBJECTID": 101, "UNIDADES": "POSTO DE SARRIA", "category": "garda_civil", "source_layer": "Garda Civil"}}, {"type": "Feature", "id": 102, "geometry": {"type": "Point", "coordinates": [-7.151145847789762, 42.63925736738877]}, "properties": {"OBJECTID": 102, "UNIDADES": "POSTO DE SEOANE DE CAUREL", "category": "garda_civil", "source_layer": "Garda Civil"}}, {"type": "Feature", "id": 103, "geometry": {"type": "Point", "coordinates": [-7.760431292182095, 42.71646992959054]}, "properties": {"OBJECTID": 103, "UNIDADES": "POSTO DE TABOADA", "category": "garda_civil", "source_layer": "Garda Civil"}}, {"type": "Feature", "id": 104, "geometry": {"type": "Point", "coordinates": [-7.677478208039058, 43.73297975855272]}, "properties": {"OBJECTID": 104, "UNIDADES": "POSTO DE VICEDO", "category": "garda_civil", "source_layer": "Garda Civil"}}, {"type": "Feature", "id": 105, "geometry": {"type": "Point", "coordinates": [-7.601404454620063, 43.666868816215434]}, "properties": {"OBJECTID": 105, "UNIDADES": "POSTO DE VIVEIRO", "category": "garda_civil", "source_layer": "Garda Civil"}}, {"type": "Feature", "id": 106, "geometry": {"type": "Point", "coordinates": [-7.845253135861711, 42.327428035374375]}, "properties": {"OBJECTID": 106, "UNIDADES": "C.O.S. OURENSE / CMDA. ORENSE / COMPAÑIA DE ORENSE / DESTO. ORENSE / POSTO DE ORENSE / SUBSECTOR TRAF. ORENSE", "category": "garda_civil", "source_layer": "Garda Civil"}}, {"type": "Feature", "id": 107, "geometry": {"type": "Point", "coordinates": [-7.121083406282683, 42.394513739819736]}, "properties": {"OBJECTID": 107, "UNIDADES": "COMPAÑIA DE A RUA / POSTO DE A RUA", "category": "garda_civil", "source_layer": "Garda Civil"}}, {"type": "Feature", "id": 108, "geometry": {"type": "Point", "coordinates": [-7.957888700270099, 42.15842878021663]}, "properties": {"OBJECTID": 108, "UNIDADES": "COMPAÑIA DE CELANOVA / POSTO DE CELANOVA", "category": "garda_civil", "source_layer": "Garda Civil"}}, {"type": "Feature", "id": 109, "geometry": {"type": "Point", "coordinates": [-7.447935047427204, 41.93949730679324]}, "properties": {"OBJECTID": 109, "UNIDADES": "COMPAÑIA DE VERIN / DESTO. VERIN / POSTO DE VERIN", "category": "garda_civil", "source_layer": "Garda Civil"}}, {"type": "Feature", "id": 110, "geometry": {"type": "Point", "coordinates": [-6.98309670577955, 42.421518086401704]}, "properties": {"OBJECTID": 110, "UNIDADES": "DESTO. O BARCO DE VALDEORRAS / POSTO DE O BARCO DE VALDEORRAS", "category": "garda_civil", "source_layer": "Garda Civil"}}, {"type": "Feature", "id": 111, "geometry": {"type": "Point", "coordinates": [-7.714416251826882, 41.95350412917957]}, "properties": {"OBJECTID": 111, "UNIDADES": "POSTO AUXILIAR DE BALTAR", "category": "garda_civil", "source_layer": "Garda Civil"}}, {"type": "Feature", "id": 112, "geometry": {"type": "Point", "coordinates": [-7.1494765089722945, 42.05759268297476]}, "properties": {"OBJECTID": 112, "UNIDADES": "POSTO DE A GUDIÑA", "category": "garda_civil", "source_layer": "Garda Civil"}}, {"type": "Feature", "id": 113, "geometry": {"type": "Point", "coordinates": [-7.026650838464961, 42.25120783768696]}, "properties": {"OBJECTID": 113, "UNIDADES": "POSTO DE A VEIGA", "category": "garda_civil", "source_layer": "Garda Civil"}}, {"type": "Feature", "id": 114, "geometry": {"type": "Point", "coordinates": [-7.79859047322862, 42.187339843811614]}, "properties": {"OBJECTID": 114, "UNIDADES": "POSTO DE ALLARIZ", "category": "garda_civil", "source_layer": "Garda Civil"}}, {"type": "Feature", "id": 115, "geometry": {"type": "Point", "coordinates": [-7.9775613694782, 42.03350033206502]}, "properties": {"OBJECTID": 115, "UNIDADES": "POSTO DE BANDE", "category": "garda_civil", "source_layer": "Garda Civil"}}, {"type": "Feature", "id": 116, "geometry": {"type": "Point", "coordinates": [-8.274545452765478, 42.46568410186313]}, "properties": {"OBJECTID": 116, "UNIDADES": "POSTO DE BEARIZ", "category": "garda_civil", "source_layer": "Garda Civil"}}, {"type": "Feature", "id": 117, "geometry": {"type": "Point", "coordinates": [-7.896669826580909, 41.9468623087454]}, "properties": {"OBJECTID": 117, "UNIDADES": "POSTO DE CALVOS DE RANDIN", "category": "garda_civil", "source_layer": "Garda Civil"}}, {"type": "Feature", "id": 118, "geometry": {"type": "Point", "coordinates": [-7.984633826060714, 42.475437175524085]}, "properties": {"OBJECTID": 118, "UNIDADES": "POSTO DE CEA", "category": "garda_civil", "source_layer": "Garda Civil"}}, {"type": "Feature", "id": 119, "geometry": {"type": "Point", "coordinates": [-7.419494107431783, 42.37363517137529]}, "properties": {"OBJECTID": 119, "UNIDADES": "POSTO DE CASTRO CALDELAS", "category": "garda_civil", "source_layer": "Garda Civil"}}, {"type": "Feature", "id": 120, "geometry": {"type": "Point", "coordinates": [-8.167939851886912, 42.20719120851295]}, "properties": {"OBJECTID": 120, "UNIDADES": "POSTO DE CORTEGADA", "category": "garda_civil", "source_layer": "Garda Civil"}}, {"type": "Feature", "id": 121, "geometry": {"type": "Point", "coordinates": [-7.5934648597198136, 41.98712178413334]}, "properties": {"OBJECTID": 121, "UNIDADES": "POSTO DE CUALEDRO", "category": "garda_civil", "source_layer": "Garda Civil"}}, {"type": "Feature", "id": 122, "geometry": {"type": "Point", "coordinates": [-7.69451442604176, 42.32599506715571]}, "properties": {"OBJECTID": 122, "UNIDADES": "POSTO DE ESGOS", "category": "garda_civil", "source_layer": "Garda Civil"}}, {"type": "Feature", "id": 123, "geometry": {"type": "Point", "coordinates": [-8.027000957477785, 42.18935338758225]}, "properties": {"OBJECTID": 123, "UNIDADES": "POSTO DE FREAS DE EIRAS", "category": "garda_civil", "source_layer": "Garda Civil"}}, {"type": "Feature", "id": 124, "geometry": {"type": "Point", "coordinates": [-8.128217112359797, 42.36901275390894]}, "properties": {"OBJECTID": 124, "UNIDADES": "POSTO DE LEIRO", "category": "garda_civil", "source_layer": "Garda Civil"}}, {"type": "Feature", "id": 125, "geometry": {"type": "Point", "coordinates": [-8.038864041477352, 41.98823535388763]}, "properties": {"OBJECTID": 125, "UNIDADES": "POSTO DE LOBEIRA", "category": "garda_civil", "source_layer": "Garda Civil"}}, {"type": "Feature", "id": 126, "geometry": {"type": "Point", "coordinates": [-8.081611233217282, 41.90510392781144]}, "properties": {"OBJECTID": 126, "UNIDADES": "POSTO DE LOBIOS", "category": "garda_civil", "source_layer": "Garda Civil"}}, {"type": "Feature", "id": 127, "geometry": {"type": "Point", "coordinates": [-7.723260933983733, 42.4108232511721]}, "properties": {"OBJECTID": 127, "UNIDADES": "POSTO DE LUINTRA", "category": "garda_civil", "source_layer": "Garda Civil"}}, {"type": "Feature", "id": 128, "geometry": {"type": "Point", "coordinates": [-7.652598210305229, 42.26982816090827]}, "properties": {"OBJECTID": 128, "UNIDADES": "POSTO DE MACEDA", "category": "garda_civil", "source_layer": "Garda Civil"}}, {"type": "Feature", "id": 129, "geometry": {"type": "Point", "coordinates": [-7.255985694028139, 42.34179494667259]}, "properties": {"OBJECTID": 129, "UNIDADES": "POSTO DE POBRA DE TRIVES", "category": "garda_civil", "source_layer": "Garda Civil"}}, {"type": "Feature", "id": 130, "geometry": {"type": "Point", "coordinates": [-8.18828470812266, 42.1359113689812]}, "properties": {"OBJECTID": 130, "UNIDADES": "POSTO DE PONTE BARXAS", "category": "garda_civil", "source_layer": "Garda Civil"}}, {"type": "Feature", "id": 131, "geometry": {"type": "Point", "coordinates": [-8.143764721281904, 42.285645866963335]}, "properties": {"OBJECTID": 131, "UNIDADES": "POSTO DE RIBADAVIA", "category": "garda_civil", "source_layer": "Garda Civil"}}, {"type": "Feature", "id": 132, "geometry": {"type": "Point", "coordinates": [-7.284617114755573, 41.97493556323808]}, "properties": {"OBJECTID": 132, "UNIDADES": "POSTO DE RIOS", "category": "garda_civil", "source_layer": "Garda Civil"}}, {"type": "Feature", "id": 133, "geometry": {"type": "Point", "coordinates": [-7.9095970058547485, 42.42467054804426]}, "properties": {"OBJECTID": 133, "UNIDADES": "POSTO DE TAMALLANCOS", "category": "garda_civil", "source_layer": "Garda Civil"}}, {"type": "Feature", "id": 134, "geometry": {"type": "Point", "coordinates": [-7.611946688642106, 42.02133900167502]}, "properties": {"OBJECTID": 134, "UNIDADES": "POSTO DE TRASMIRAS", "category": "garda_civil", "source_layer": "Garda Civil"}}, {"type": "Feature", "id": 135, "geometry": {"type": "Point", "coordinates": [-7.109467946641851, 42.18167827544673]}, "properties": {"OBJECTID": 135, "UNIDADES": "POSTO DE VIANA DO BOLO", "category": "garda_civil", "source_layer": "Garda Civil"}}, {"type": "Feature", "id": 136, "geometry": {"type": "Point", "coordinates": [-7.610899066866607, 42.16112430306621]}, "properties": {"OBJECTID": 136, "UNIDADES": "POSTO DE VILAR DE BARRIO", "category": "garda_civil", "source_layer": "Garda Civil"}}, {"type": "Feature", "id": 137, "geometry": {"type": "Point", "coordinates": [-7.724224792995489, 42.06023368927391]}, "properties": {"OBJECTID": 137, "UNIDADES": "POSTO DE XINZO DE LIMIA", "category": "garda_civil", "source_layer": "Garda Civil"}}, {"type": "Feature", "id": 138, "geometry": {"type": "Point", "coordinates": [-8.077996871252056, 42.440566570173864]}, "properties": {"OBJECTID": 138, "UNIDADES": "POSTO P. DE CARBALLINO", "category": "garda_civil", "source_layer": "Garda Civil"}}, {"type": "Feature", "id": 139, "geometry": {"type": "Point", "coordinates": [-8.648180091525477, 42.038037867328065]}, "properties": {"OBJECTID": 139, "UNIDADES": "CCPA TUI-VALENCIA DO MINHO", "category": "garda_civil", "source_layer": "Garda Civil"}}, {"type": "Feature", "id": 140, "geometry": {"type": "Point", "coordinates": [-8.106705022225572, 42.660356140913116]}, "properties": {"OBJECTID": 140, "UNIDADES": "COMPAÑÍA DE LALIN / DESTO. LALIN / POSTO P. DE LALIN", "category": "garda_civil", "source_layer": "Garda Civil"}}, {"type": "Feature", "id": 141, "geometry": {"type": "Point", "coordinates": [-8.652433108937085, 42.436845624217646]}, "properties": {"OBJECTID": 141, "UNIDADES": "C.O.S. / CMDA. PONTEVEDRA / COMPAÑÍA DE PONTEVEDRA / DESTO. PONTEVEDRA  / POSTO DE PONTEVEDRA-EXTERIOR / SUBSECTOR TRAF. PONTEVEDRA", "category": "garda_civil", "source_layer": "Garda Civil"}}, {"type": "Feature", "id": 142, "geometry": {"type": "Point", "coordinates": [-8.643631195282351, 42.049209568568436]}, "properties": {"OBJECTID": 142, "UNIDADES": "COMPAÑÍA DE TUI / POSTO DE TUI", "category": "garda_civil", "source_layer": "Garda Civil"}}, {"type": "Feature", "id": 143, "geometry": {"type": "Point", "coordinates": [-8.72573803201937, 42.22434213275103]}, "properties": {"OBJECTID": 143, "UNIDADES": "COMPAÑÍA DE VIGO", "category": "garda_civil", "source_layer": "Garda Civil"}}, {"type": "Feature", "id": 145, "geometry": {"type": "Point", "coordinates": [-8.633049183610192, 42.22474017331175]}, "properties": {"OBJECTID": 145, "UNIDADES": "DESTO. AEROPUERTO DE VIGO (Desto.-Fiscal.-Seguridad)", "category": "garda_civil", "source_layer": "Garda Civil"}}, {"type": "Feature", "id": 146, "geometry": {"type": "Point", "coordinates": [-8.63257991385336, 42.15442777426373]}, "properties": {"OBJECTID": 146, "UNIDADES": "DESTO. PORRIÑO / POSTO P. DE PORRIÑO", "category": "garda_civil", "source_layer": "Garda Civil"}}, {"type": "Feature", "id": 147, "geometry": {"type": "Point", "coordinates": [-8.6372910986956, 42.367454281005244]}, "properties": {"OBJECTID": 147, "UNIDADES": "DESTO. VILABOA", "category": "garda_civil", "source_layer": "Garda Civil"}}, {"type": "Feature", "id": 148, "geometry": {"type": "Point", "coordinates": [-8.60378025967108, 42.43469536424702]}, "properties": {"OBJECTID": 148, "UNIDADES": "G. R. S. 7", "category": "garda_civil", "source_layer": "Garda Civil"}}, {"type": "Feature", "id": 149, "geometry": {"type": "Point", "coordinates": [-8.26258403423949, 42.216494378332484]}, "properties": {"OBJECTID": 149, "UNIDADES": "POSTO DE A CAÑIZA", "category": "garda_civil", "source_layer": "Garda Civil"}}, {"type": "Feature", "id": 150, "geometry": {"type": "Point", "coordinates": [-8.499709075775366, 42.68698087058754]}, "properties": {"OBJECTID": 150, "UNIDADES": "POSTO DE A ESTRADA", "category": "garda_civil", "source_layer": "Garda Civil"}}, {"type": "Feature", "id": 151, "geometry": {"type": "Point", "coordinates": [-8.861123540521632, 41.89878767694367]}, "properties": {"OBJECTID": 151, "UNIDADES": "POSTO DE A GUARDA", "category": "garda_civil", "source_layer": "Garda Civil"}}, {"type": "Feature", "id": 152, "geometry": {"type": "Point", "coordinates": [-8.303529293581855, 42.10880229129286]}, "properties": {"OBJECTID": 152, "UNIDADES": "POSTO DE ARBO", "category": "garda_civil", "source_layer": "Garda Civil"}}, {"type": "Feature", "id": 153, "geometry": {"type": "Point", "coordinates": [-8.848905454391021, 42.116582397319554]}, "properties": {"OBJECTID": 153, "UNIDADES": "POSTO DE BAIONA", "category": "garda_civil", "source_layer": "Garda Civil"}}, {"type": "Feature", "id": 154, "geometry": {"type": "Point", "coordinates": [-8.643224166128936, 42.599818160483906]}, "properties": {"OBJECTID": 154, "UNIDADES": "POSTO DE CALDAS DE REIS", "category": "garda_civil", "source_layer": "Garda Civil"}}, {"type": "Feature", "id": 155, "geometry": {"type": "Point", "coordinates": [-8.389774431278607, 42.533552175563294]}, "properties": {"OBJECTID": 155, "UNIDADES": "POSTO DE CERDEDO", "category": "garda_civil", "source_layer": "Garda Civil"}}, {"type": "Feature", "id": 156, "geometry": {"type": "Point", "coordinates": [-8.361428527229375, 42.23166799753841]}, "properties": {"OBJECTID": 156, "UNIDADES": "POSTO DE COVELO", "category": "garda_civil", "source_layer": "Garda Civil"}}, {"type": "Feature", "id": 157, "geometry": {"type": "Point", "coordinates": [-8.17270878562142, 42.793342626376266]}, "properties": {"OBJECTID": 157, "UNIDADES": "POSTO DE CRUCES", "category": "garda_civil", "source_layer": "Garda Civil"}}, {"type": "Feature", "id": 158, "geometry": {"type": "Point", "coordinates": [-8.55817380155839, 42.632737843465925]}, "properties": {"OBJECTID": 158, "UNIDADES": "POSTO DE CUNTIS", "category": "garda_civil", "source_layer": "Garda Civil"}}, {"type": "Feature", "id": 159, "geometry": {"type": "Point", "coordinates": [-8.34926846695629, 42.592758580606706]}, "properties": {"OBJECTID": 159, "UNIDADES": "POSTO DE FORCAREI", "category": "garda_civil", "source_layer": "Garda Civil"}}, {"type": "Feature", "id": 160, "geometry": {"type": "Point", "coordinates": [-8.452384266568728, 42.33761055132198]}, "properties": {"OBJECTID": 160, "UNIDADES": "POSTO DE FORNELOS DE MONTES", "category": "garda_civil", "source_layer": "Garda Civil"}}, {"type": "Feature", "id": 161, "geometry": {"type": "Point", "coordinates": [-8.759747255060603, 42.115081048630834]}, "properties": {"OBJECTID": 161, "UNIDADES": "POSTO DE GONDOMAR", "category": "garda_civil", "source_layer": "Garda Civil"}}, {"type": "Feature", "id": 162, "geometry": {"type": "Point", "coordinates": [-8.69594573062659, 42.381861878993206]}, "properties": {"OBJECTID": 162, "UNIDADES": "POSTO DE MARIN (FISCAL) /  S. M. P. PONTEVEDRA", "category": "garda_civil", "source_layer": "Garda Civil"}}, {"type": "Feature", "id": 163, "geometry": {"type": "Point", "coordinates": [-8.737178673113991, 42.289909139363964]}, "properties": {"OBJECTID": 163, "UNIDADES": "POSTO DE MOAÑA", "category": "garda_civil", "source_layer": "Garda Civil"}}, {"type": "Feature", "id": 164, "geometry": {"type": "Point", "coordinates": [-8.651546019342817, 42.20087269128287]}, "properties": {"OBJECTID": 164, "UNIDADES": "POSTO DE MOS", "category": "garda_civil", "source_layer": "Garda Civil"}}, {"type": "Feature", "id": 165, "geometry": {"type": "Point", "coordinates": [-8.867968007092145, 42.48679888884656]}, "properties": {"OBJECTID": 165, "UNIDADES": "POSTO DE O GROVE", "category": "garda_civil", "source_layer": "Garda Civil"}}, {"type": "Feature", "id": 166, "geometry": {"type": "Point", "coordinates": [-8.50367337070456, 42.39039001894253]}, "properties": {"OBJECTID": 166, "UNIDADES": "POSTO DE PONTE CALDELAS", "category": "garda_civil", "source_layer": "Garda Civil"}}, {"type": "Feature", "id": 167, "geometry": {"type": "Point", "coordinates": [-7.9442571099698975, 42.64880737927221]}, "properties": {"OBJECTID": 167, "UNIDADES": "POSTO DE RODEIRO", "category": "garda_civil", "source_layer": "Garda Civil"}}, {"type": "Feature", "id": 168, "geometry": {"type": "Point", "coordinates": [-8.503801653739206, 42.08850056081978]}, "properties": {"OBJECTID": 168, "UNIDADES": "POSTO DE SALVATIERRA DE MIÑO", "category": "garda_civil", "source_layer": "Garda Civil"}}, {"type": "Feature", "id": 169, "geometry": {"type": "Point", "coordinates": [-8.245433948665296, 42.69195378907544]}, "properties": {"OBJECTID": 169, "UNIDADES": "POSTO DE SILLEDA", "category": "garda_civil", "source_layer": "Garda Civil"}}, {"type": "Feature", "id": 170, "geometry": {"type": "Point", "coordinates": [-8.607406346296495, 42.33267953027586]}, "properties": {"OBJECTID": 170, "UNIDADES": "POSTO DE SOUTOMAIOR", "category": "garda_civil", "source_layer": "Garda Civil"}}, {"type": "Feature", "id": 171, "geometry": {"type": "Point", "coordinates": [-8.738127194458698, 41.990612260630805]}, "properties": {"OBJECTID": 171, "UNIDADES": "POSTO DE TOMIÑO", "category": "garda_civil", "source_layer": "Garda Civil"}}, {"type": "Feature", "id": 172, "geometry": {"type": "Point", "coordinates": [-8.650463196644363, 42.703203576072895]}, "properties": {"OBJECTID": 172, "UNIDADES": "POSTO DE VALGA", "category": "garda_civil", "source_layer": "Garda Civil"}}, {"type": "Feature", "id": 173, "geometry": {"type": "Point", "coordinates": [-8.811774608597327, 42.518082147458486]}, "properties": {"OBJECTID": 173, "UNIDADES": "POSTO P. DE CAMBADOS", "category": "garda_civil", "source_layer": "Garda Civil"}}, {"type": "Feature", "id": 174, "geometry": {"type": "Point", "coordinates": [-8.772603022341912, 42.26329108552356]}, "properties": {"OBJECTID": 174, "UNIDADES": "POSTO P. DE CANGAS DEL MORRAZO", "category": "garda_civil", "source_layer": "Garda Civil"}}, {"type": "Feature", "id": 175, "geometry": {"type": "Point", "coordinates": [-8.501803116780806, 42.1722932977223]}, "properties": {"OBJECTID": 175, "UNIDADES": "POSTO P. DE PONTEAREAS", "category": "garda_civil", "source_layer": "Garda Civil"}}, {"type": "Feature", "id": 176, "geometry": {"type": "Point", "coordinates": [-8.800164631429272, 42.402442349693594]}, "properties": {"OBJECTID": 176, "UNIDADES": "POSTO P. DE SANXENXO", "category": "garda_civil", "source_layer": "Garda Civil"}}, {"type": "Feature", "id": 177, "geometry": {"type": "Point", "coordinates": [-8.719256698721427, 42.241197399088485]}, "properties": {"OBJECTID": 177, "UNIDADES": "SECCION FISCAL DEL PUERTO-VIGO", "category": "garda_civil", "source_layer": "Garda Civil"}}, {"type": "Feature", "id": 180, "geometry": {"type": "Point", "coordinates": [-8.759000000097181, 42.59494999932222]}, "properties": {"OBJECTID": 180, "UNIDADES": "COMPAÑìA DE CAMBADOS /DTO DE VILAGARCIA (FISCAL)", "category": "garda_civil", "source_layer": "Garda Civil"}}, {"type": "Feature", "id": 181, "geometry": {"type": "Point", "coordinates": [-8.844999999409628, 42.116679999154414]}, "properties": {"OBJECTID": 181, "UNIDADES": "POSTO P. DE BAIONA-NIGRÁN", "category": "garda_civil", "source_layer": "Garda Civil"}}, {"type": "Feature", "id": 182, "geometry": {"type": "Point", "coordinates": [-8.719000000336548, 42.24009899887391]}, "properties": {"OBJECTID": 182, "UNIDADES": "COMPAÑÍA FISCAL Y FRONTERAS VIGO", "category": "garda_civil", "source_layer": "Garda Civil"}}, {"type": "Feature", "id": 183, "geometry": {"type": "Point", "coordinates": [-8.827000000414552, 42.56269999886571]}, "properties": {"OBJECTID": 183, "UNIDADES": "POSTO DE VILANOVA DE AROUSA", "category": "garda_civil", "source_layer": "Garda Civil"}}, {"type": "Feature", "id": 184, "geometry": {"type": "Point", "coordinates": [-8.467424453360174, 42.79645282242483]}, "properties": {"OBJECTID": 184, "UNIDADES": "POSTO DE LESTEDO", "category": "garda_civil", "source_layer": "Garda Civil"}}, {"type": "Feature", "id": 185, "geometry": {"type": "Point", "coordinates": [-9.03457158235952, 43.11060829957479]}, "properties": {"OBJECTID": 185, "UNIDADES": "POSTO DE VIMIANZO", "category": "garda_civil", "source_layer": "Garda Civil"}}]}