{"type": "FeatureCollection", "features": [{"type": "Feature", "id": 75, "geometry": {"type": "Point", "coordinates": [-8.675829783406918, 42.86151259808045]}, "properties": {"OBJECTID": 75, "NOMEGES": "Brión", "category": "ges", "source_layer": "GES"}}, {"type": "Feature", "id": 76, "geometry": {"type": "Point", "coordinates": [-8.141777383300454, 43.125228585619375]}, "properties": {"OBJECTID": 76, "NOMEGES": "Curtis", "category": "ges", "source_layer": "GES"}}, {"type": "Feature", "id": 77, "geometry": {"type": "Point", "coordinates": [-8.237962553095501, 43.45875896447171]}, "properties": {"OBJECTID": 77, "NOMEGES": "Mugardos", "category": "ges", "source_layer": "GES"}}, {"type": "Feature", "id": 78, "geometry": {"type": "Point", "coordinates": [-9.068017671135639, 42.78834006955148]}, "properties": {"OBJECTID": 78, "NOMEGES": "Muros", "category": "ges", "source_layer": "GES"}}, {"type": "Feature", "id": 79, "geometry": {"type": "Point", "coordinates": [-7.842064203004994, 43.669318750146324]}, "properties": {"OBJECTID": 79, "NOMEGES": "Ortigueira", "category": "ges", "source_layer": "GES"}}, {"type": "Feature", "id": 80, "geometry": {"type": "Point", "coordinates": [-8.657970175385637, 42.757855462319576]}, "properties": {"OBJECTID": 80, "NOMEGES": "Padrón", "category": "ges", "source_layer": "GES"}}, {"type": "Feature", "id": 81, "geometry": {"type": "Point", "coordinates": [-8.869787862322559, 43.254332728365284]}, "properties": {"OBJECTID": 81, "NOMEGES": "Ponteceso", "category": "ges", "source_layer": "GES"}}, {"type": "Feature", "id": 82, "geometry": {"type": "Point", "coordinates": [-7.1981500078779055, 43.346329998657374]}, "properties": {"OBJECTID": 82, "NOMEGES": "A Pontenova", "category": "ges", "source_layer": "GES"}}, {"type": "Feature", "id": 84, "geometry": {"type": "Point", "coordinates": [-7.816781946538139, 42.798061788660135]}, "properties": {"OBJECTID": 84, "NOMEGES": "Monterroso", "category": "ges", "source_layer": "GES"}}, {"type": "Feature", "id": 85, "geometry": {"type": "Point", "coordinates": [-8.252942029325474, 42.375264387127345]}, "properties": {"OBJECTID": 85, "NOMEGES": "Avión", "category": "ges", "source_layer": "GES"}}, {"type": "Feature", "id": 86, "geometry": {"type": "Point", "coordinates": [-8.113974174294563, 42.30610369731133]}, "properties": {"OBJECTID": 86, "NOMEGES": "Ribadavia", "category": "ges", "source_layer": "GES"}}, {"type": "Feature", "id": 87, "geometry": {"type": "Point", "coordinates": [-7.786861495323183, 42.33917355824491]}, "properties": {"OBJECTID": 87, "NOMEGES": "O Pereiro de Aguiar", "category": "ges", "source_layer": "GES"}}, {"type": "Feature", "id": 88, "geometry": {"type": "Point", "coordinates": [-7.414948740515755, 42.37147825808093]}, "properties": {"OBJECTID": 88, "NOMEGES": "Castro Caldelas", "category": "ges", "source_layer": "GES"}}, {"type": "Feature", "id": 89, "geometry": {"type": "Point", "coordinates": [-6.977448590091135, 42.424005818900305]}, "properties": {"OBJECTID": 89, "NOMEGES": "O Barco de Valdeorras", "category": "ges", "source_layer": "GES"}}, {"type": "Feature", "id": 90, "geometry": {"type": "Point", "coordinates": [-8.08108776637328, 41.90155344738692]}, "properties": {"OBJECTID": 90, "NOMEGES": "Lobios", "category": "ges", "source_layer": "GES"}}, {"type": "Feature", "id": 91, "geometry": {"type": "Point", "coordinates": [-7.969313209562297, 41.95813013995311]}, "properties": {"OBJECTID": 91, "NOMEGES": "Muíños", "category": "ges", "source_layer": "GES"}}, {"type": "Feature", "id": 92, "geometry": {"type": "Point", "coordinates": [-7.1256157511838865, 42.05927945225486]}, "properties": {"OBJECTID": 92, "NOMEGES": "A Gudiña", "category": "ges", "source_layer": "GES"}}, {"type": "Feature", "id": 93, "geometry": {"type": "Point", "coordinates": [-7.459892678786065, 42.061038405449445]}, "properties": {"OBJECTID": 93, "NOMEGES": "Laza", "category": "ges", "source_layer": "GES"}}, {"type": "Feature", "id": 94, "geometry": {"type": "Point", "coordinates": [-8.861935297088475, 41.90042646274047]}, "properties": {"OBJECTID": 94, "NOMEGES": "A Guarda", "category": "ges", "source_layer": "GES"}}, {"type": "Feature", "id": 95, "geometry": {"type": "Point", "coordinates": [-8.512081922307843, 42.71466071507378]}, "properties": {"OBJECTID": 95, "NOMEGES": "A Estrada", "category": "ges", "source_layer": "GES"}}, {"type": "Feature", "id": 96, "geometry": {"type": "Point", "coordinates": [-8.117329523306116, 42.658812794882266]}, "properties": {"OBJECTID": 96, "NOMEGES": "Lalín", "category": "ges", "source_layer": "GES"}}, {"type": "Feature", "id": 97, "geometry": {"type": "Point", "coordinates": [-8.801986859896306, 42.136060349424795]}, "properties": {"OBJECTID": 97, "NOMEGES": "Mancomunidade Val Miñor", "category": "ges", "source_layer": "GES"}}, {"type": "Feature", "id": 98, "geometry": {"type": "Point", "coordinates": [-8.828121476549898, 42.40034559287718]}, "properties": {"OBJECTID": 98, "NOMEGES": "Sanxenxo", "category": "ges", "source_layer": "GES"}}, {"type": "Feature", "id": 99, "geometry": {"type": "Point", "coordinates": [-8.500998390020497, 42.1700008761986]}, "properties": {"OBJECTID": 99, "NOMEGES": "Ponteareas", "category": "ges", "source_layer": "GES"}}, {"type": "Feature", "id": 100, "geometry": {"type": "Point", "coordinates": [-7.195894992727803, 42.58941455876139]}, "properties": {"OBJECTID": 100, "NOMEGES": "Folgoso do Courel", "category": "ges", "source_layer": "GES"}}, {"type": "Feature", "id": 101, "geometry": {"type": "Point", "coordinates": [-8.625840712517986, 42.18453056562075]}, "properties": {"OBJECTID": 101, "NOMEGES": "Mos", "category": "ges", "source_layer": "GES"}}, {"type": "Feature", "id": 102, "geometry": {"type": "Point", "coordinates": [-7.653474588061817, 42.27121253856264]}, "properties": {"OBJECTID": 102, "NOMEGES": "Maceda", "category": "ges", "source_layer": "GES"}}, {"type": "Feature", "id": 103, "geometry": {"type": "Point", "coordinates": [-7.02785229794004, 42.25205355075466]}, "properties": {"OBJECTID": 103, "NOMEGES": "A Veiga", "category": "ges", "source_layer": "GES"}}, {"type": "Feature", "id": 104, "geometry": {"type": "Point", "coordinates": [-7.955954802823568, 42.14673649400697]}, "properties": {"OBJECTID": 104, "NOMEGES": "Terras de Celanova", "category": "ges", "source_layer": "GES"}}, {"type": "Feature", "id": 105, "geometry": {"type": "Point", "coordinates": [-7.779679818391034, 43.031562171197905]}, "properties": {"OBJECTID": 105, "NOMEGES": "Friol", "category": "ges", "source_layer": "GES"}}, {"type": "Feature", "id": 106, "geometry": {"type": "Point", "coordinates": [-8.875825764977632, 42.80001799573119]}, "properties": {"OBJECTID": 106, "NOMEGES": "Noia", "category": "ges", "source_layer": "GES"}}, {"type": "Feature", "id": 107, "geometry": {"type": "Point", "coordinates": [-7.280993251209984, 42.47386737998494]}, "properties": {"OBJECTID": 107, "NOMEGES": "Quiroga", "category": "ges", "source_layer": "GES"}}]}