{"type": "FeatureCollection", "features": [{"type": "Feature", "id": 1, "geometry": {"type": "Point", "coordinates": [-8.40321997876216, 43.366135504193224]}, "properties": {"OBJECTID_1": 1, "DEPENDENCI": "Jefatura Superior de Polícía de Galicia", "DIRECCION": "Av. Do Porto da Coruña 5-7", "MUNICIPIO": "A Coruña", "category": "policia_nacional", "source_layer": "Policía nacional"}}, {"type": "Feature", "id": 2, "geometry": {"type": "Point", "coordinates": [-8.415471779440475, 43.346460219475624]}, "properties": {"OBJECTID_1": 2, "DEPENDENCI": "Comisaría Provincial de A Coruña", "DIRECCION": "C/ Médico Devesa Nuñez, 4", "MUNICIPIO": "A Coruña", "category": "policia_nacional", "source_layer": "Policía nacional"}}, {"type": "Feature", "id": 3, "geometry": {"type": "Point", "coordinates": [-8.403250067317268, 43.36619736711899]}, "properties": {"OBJECTID_1": 3, "DEPENDENCI": "Comisaría de Distrito A Coruña - Norte", "DIRECCION": "Av. Do Porto da Coruña 5-7", "MUNICIPIO": "A Coruña", "category": "policia_nacional", "source_layer": "Policía nacional"}}, {"type": "Feature", "id": 4, "geometry": {"type": "Point", "coordinates": [-8.415506242530178, 43.34656964378677]}, "properties": {"OBJECTID_1": 4, "DEPENDENCI": "Comisaría de Distrito A Coruña - Sur", "DIRECCION": "C/ Médico Devesa Nuñez, 4", "MUNICIPIO": "A Coruña", "category": "policia_nacional", "source_layer": "Policía nacional"}}, {"type": "Feature", "id": 5, "geometry": {"type": "Point", "coordinates": [-8.224932124243184, 43.48473415795136]}, "properties": {"OBJECTID_1": 5, "DEPENDENCI": "Comisaría Local de Ferrol-Narón", "DIRECCION": "Avda. de Vigo, 165", "MUNICIPIO": "Ferrol", "category": "policia_nacional", "source_layer": "Policía nacional"}}, {"type": "Feature", "id": 6, "geometry": {"type": "Point", "coordinates": [-8.995410101079411, 42.55577209840239]}, "properties": {"OBJECTID_1": 6, "DEPENDENCI": "Comisaría Local de Santa Uxía de Ribeira", "DIRECCION": "Avda. Miguel Rodríguez Bautista, 24", "MUNICIPIO": "Ribeira", "category": "policia_nacional", "source_layer": "Policía nacional"}}, {"type": "Feature", "id": 7, "geometry": {"type": "Point", "coordinates": [-8.546366275597942, 42.878465664928065]}, "properties": {"OBJECTID_1": 7, "DEPENDENCI": "Comisaría Local de Santiago de Compostela", "DIRECCION": "C/ Rodrígo de Padrón, s/n", "MUNICIPIO": "Santiago de Compostela", "category": "policia_nacional", "source_layer": "Policía nacional"}}, {"type": "Feature", "id": 8, "geometry": {"type": "Point", "coordinates": [-7.563506789662018, 43.011377724079225]}, "properties": {"OBJECTID_1": 8, "DEPENDENCI": "Comisaría Provincial de Lugo", "DIRECCION": "C/ Chantada, s/n", "MUNICIPIO": "Lugo", "category": "policia_nacional", "source_layer": "Policía nacional"}}, {"type": "Feature", "id": 9, "geometry": {"type": "Point", "coordinates": [-7.510302965886091, 42.51805243814649]}, "properties": {"OBJECTID_1": 9, "DEPENDENCI": "Comisaría Local de Monforte de Lemos", "DIRECCION": "C/ Miguel de Cervantes, 1", "MUNICIPIO": "Monforte de Lemos", "category": "policia_nacional", "source_layer": "Policía nacional"}}, {"type": "Feature", "id": 10, "geometry": {"type": "Point", "coordinates": [-7.594229037071256, 43.66481210593398]}, "properties": {"OBJECTID_1": 10, "DEPENDENCI": "Comisaría Local de Viveiro", "DIRECCION": "Avda. Ramón Canosa, s/n", "MUNICIPIO": "Viveiro", "category": "policia_nacional", "source_layer": "Policía nacional"}}, {"type": "Feature", "id": 11, "geometry": {"type": "Point", "coordinates": [-7.860504103083038, 42.34462835216606]}, "properties": {"OBJECTID_1": 11, "DEPENDENCI": "Comisaría Provincial de Ourense", "DIRECCION": "C/ Mestre Vide, 4", "MUNICIPIO": "Ourense", "category": "policia_nacional", "source_layer": "Policía nacional"}}, {"type": "Feature", "id": 12, "geometry": {"type": "Point", "coordinates": [-8.640245600779402, 42.42867650843236]}, "properties": {"OBJECTID_1": 12, "DEPENDENCI": "Comisaría Pronvicial de Pontevedra", "DIRECCION": "C/ Joaquín Costa, 17", "MUNICIPIO": "Pontevedra", "category": "policia_nacional", "source_layer": "Policía nacional"}}, {"type": "Feature", "id": 13, "geometry": {"type": "Point", "coordinates": [-8.723800769978062, 42.24003625690903]}, "properties": {"OBJECTID_1": 13, "DEPENDENCI": "Comisaría de Distrito Vigo Centro", "DIRECCION": "C/ Luis Taboada, 3", "MUNICIPIO": "Vigo", "category": "policia_nacional", "source_layer": "Policía nacional"}}, {"type": "Feature", "id": 14, "geometry": {"type": "Point", "coordinates": [-8.731090488974527, 42.22444883133007]}, "properties": {"OBJECTID_1": 14, "DEPENDENCI": "Comisaría de Distrito Vigo Traviesas", "DIRECCION": "C/ Álvaro Cunqueiro, 6", "MUNICIPIO": "Vigo", "category": "policia_nacional", "source_layer": "Policía nacional"}}, {"type": "Feature", "id": 15, "geometry": {"type": "Point", "coordinates": [-8.11668598685716, 42.660601089077915]}, "properties": {"OBJECTID_1": 15, "DEPENDENCI": "Lalín", "DIRECCION": "Plaza de Galicia, 1", "MUNICIPIO": "Lalín", "category": "policia_nacional", "source_layer": "Policía nacional"}}, {"type": "Feature", "id": 16, "geometry": {"type": "Point", "coordinates": [-8.704616658439296, 42.39341879947555]}, "properties": {"OBJECTID_1": 16, "DEPENDENCI": "Comisaría Local de Marín", "DIRECCION": "C/ Lameira, 27, bajo", "MUNICIPIO": "Marín", "category": "policia_nacional", "source_layer": "Policía nacional"}}, {"type": "Feature", "id": 17, "geometry": {"type": "Point", "coordinates": [-8.767794882109708, 42.59597429363056]}, "properties": {"OBJECTID_1": 17, "DEPENDENCI": "Comisaría Local de Vilagarcía de Arousa", "DIRECCION": "Avda. de la Marina, 9", "MUNICIPIO": "Vilagarcía de Arousa", "category": "policia_nacional", "source_layer": "Policía nacional"}}]}