{"type": "FeatureCollection", "features": [{"type": "Feature", "id": 1, "geometry": {"type": "Point", "coordinates": [-8.55193101904377, 43.08839028627303]}, "properties": {"OBJECTID": 1, "CONCELLO": "Tordoia", "TIPO": "PL", "category": "policia_local", "source_layer": "Policía local e vixiantes municipais"}}, {"type": "Feature", "id": 2, "geometry": {"type": "Point", "coordinates": [-8.929632203451641, 43.21928592596419]}, "properties": {"OBJECTID": 2, "CONCELLO": "Cabana de Bergantiños", "TIPO": "PL", "category": "policia_local", "source_layer": "Policía local e vixiantes municipais"}}, {"type": "Feature", "id": 3, "geometry": {"type": "Point", "coordinates": [-8.234416992557573, 43.319624056215815]}, "properties": {"OBJECTID": 3, "CONCELLO": "Bergondo", "TIPO": "PL", "category": "policia_local", "source_layer": "Policía local e vixiantes municipais"}}, {"type": "Feature", "id": 4, "geometry": {"type": "Point", "coordinates": [-9.00421744945843, 43.21731494249878]}, "properties": {"OBJECTID": 4, "CONCELLO": "Laxe", "TIPO": "PL", "category": "policia_local", "source_layer": "Policía local e vixiantes municipais"}}, {"type": "Feature", "id": 5, "geometry": {"type": "Point", "coordinates": [-8.993339601680466, 42.55485054028162]}, "properties": {"OBJECTID": 5, "CONCELLO": "Ribeira", "TIPO": "PL", "category": "policia_local", "source_layer": "Policía local e vixiantes municipais"}}, {"type": "Feature", "id": 6, "geometry": {"type": "Point", "coordinates": [-9.190141712690302, 42.95543605423974]}, "properties": {"OBJECTID": 6, "CONCELLO": "Cee", "TIPO": "PL", "category": "policia_local", "source_layer": "Policía local e vixiantes municipais"}}, {"type": "Feature", "id": 7, "geometry": {"type": "Point", "coordinates": [-8.143402180800347, 43.606803027350736]}, "properties": {"OBJECTID": 7, "CONCELLO": "Valdoviño", "TIPO": "PL", "category": "policia_local", "source_layer": "Policía local e vixiantes municipais"}}, {"type": "Feature", "id": 8, "geometry": {"type": "Point", "coordinates": [-8.900865738394502, 43.24335487910607]}, "properties": {"OBJECTID": 8, "CONCELLO": "Ponteceso", "TIPO": "PL", "category": "policia_local", "source_layer": "Policía local e vixiantes municipais"}}, {"type": "Feature", "id": 9, "geometry": {"type": "Point", "coordinates": [-8.056469479969678, 43.660739963460074]}, "properties": {"OBJECTID": 9, "CONCELLO": "Cedeira", "TIPO": "PL", "category": "policia_local", "source_layer": "Policía local e vixiantes municipais"}}, {"type": "Feature", "id": 10, "geometry": {"type": "Point", "coordinates": [-8.016734767963586, 42.915131647129215]}, "properties": {"OBJECTID": 10, "CONCELLO": "Melide", "TIPO": "PL", "category": "policia_local", "source_layer": "Policía local e vixiantes municipais"}}, {"type": "Feature", "id": 11, "geometry": {"type": "Point", "coordinates": [-8.939121727962586, 42.603325259382046]}, "properties": {"OBJECTID": 11, "CONCELLO": "A Pobra do Caramiñal", "TIPO": "PL", "category": "policia_local", "source_layer": "Policía local e vixiantes municipais"}}, {"type": "Feature", "id": 12, "geometry": {"type": "Point", "coordinates": [-7.868541054485857, 43.74049589220762]}, "properties": {"OBJECTID": 12, "CONCELLO": "Cariño", "TIPO": "PL", "category": "policia_local", "source_layer": "Policía local e vixiantes municipais"}}, {"type": "Feature", "id": 13, "geometry": {"type": "Point", "coordinates": [-8.357133899875702, 43.22888898744599]}, "properties": {"OBJECTID": 13, "CONCELLO": "Carral", "TIPO": "PL", "category": "policia_local", "source_layer": "Policía local e vixiantes municipais"}}, {"type": "Feature", "id": 14, "geometry": {"type": "Point", "coordinates": [-8.243755762110212, 43.42657047580357]}, "properties": {"OBJECTID": 14, "CONCELLO": "Ares", "TIPO": "PL", "category": "policia_local", "source_layer": "Policía local e vixiantes municipais"}}, {"type": "Feature", "id": 15, "geometry": {"type": "Point", "coordinates": [-8.650185847927162, 42.85945178137282]}, "properties": {"OBJECTID": 15, "CONCELLO": "Ames", "TIPO": "PL", "category": "policia_local", "source_layer": "Policía local e vixiantes municipais"}}, {"type": "Feature", "id": 16, "geometry": {"type": "Point", "coordinates": [-8.156810684340549, 43.50115901118318]}, "properties": {"OBJECTID": 16, "CONCELLO": "Neda", "TIPO": "PL", "category": "policia_local", "source_layer": "Policía local e vixiantes municipais"}}, {"type": "Feature", "id": 17, "geometry": {"type": "Point", "coordinates": [-8.344843192330313, 43.29260297222525]}, "properties": {"OBJECTID": 17, "CONCELLO": "Cambre", "TIPO": "PL", "category": "policia_local", "source_layer": "Policía local e vixiantes municipais"}}, {"type": "Feature", "id": 18, "geometry": {"type": "Point", "coordinates": [-8.736090595354243, 42.90977075901618]}, "properties": {"OBJECTID": 18, "CONCELLO": "Negreira", "TIPO": "PL", "category": "policia_local", "source_layer": "Policía local e vixiantes municipais"}}, {"type": "Feature", "id": 19, "geometry": {"type": "Point", "coordinates": [-8.887712759734196, 42.78505004392766]}, "properties": {"OBJECTID": 19, "CONCELLO": "Noia", "TIPO": "PL", "category": "policia_local", "source_layer": "Policía local e vixiantes municipais"}}, {"type": "Feature", "id": 20, "geometry": {"type": "Point", "coordinates": [-8.233097851829381, 43.484704122299]}, "properties": {"OBJECTID": 20, "CONCELLO": "Ferrol", "TIPO": "PL", "category": "policia_local", "source_layer": "Policía local e vixiantes municipais"}}, {"type": "Feature", "id": 21, "geometry": {"type": "Point", "coordinates": [-8.170569662216474, 43.40653030507941]}, "properties": {"OBJECTID": 21, "CONCELLO": "Pontedeume", "TIPO": "PL", "category": "policia_local", "source_layer": "Policía local e vixiantes municipais"}}, {"type": "Feature", "id": 22, "geometry": {"type": "Point", "coordinates": [-8.548979406356745, 42.79514274400703]}, "properties": {"OBJECTID": 22, "CONCELLO": "Teo", "TIPO": "PL", "category": "policia_local", "source_layer": "Policía local e vixiantes municipais"}}, {"type": "Feature", "id": 23, "geometry": {"type": "Point", "coordinates": [-8.73712313959437, 43.18745966788861]}, "properties": {"OBJECTID": 23, "CONCELLO": "Coristanco", "TIPO": "PL", "category": "policia_local", "source_layer": "Policía local e vixiantes municipais"}}, {"type": "Feature", "id": 24, "geometry": {"type": "Point", "coordinates": [-8.505108155972662, 43.30481422216578]}, "properties": {"OBJECTID": 24, "CONCELLO": "Arteixo", "TIPO": "PL", "category": "policia_local", "source_layer": "Policía local e vixiantes municipais"}}, {"type": "Feature", "id": 25, "geometry": {"type": "Point", "coordinates": [-8.908258377370029, 42.84283510133263]}, "properties": {"OBJECTID": 25, "CONCELLO": "Outes", "TIPO": "PL", "category": "policia_local", "source_layer": "Policía local e vixiantes municipais"}}, {"type": "Feature", "id": 26, "geometry": {"type": "Point", "coordinates": [-8.162055939006462, 43.41948041029687]}, "properties": {"OBJECTID": 26, "CONCELLO": "Cabanas", "TIPO": "PL", "category": "policia_local", "source_layer": "Policía local e vixiantes municipais"}}, {"type": "Feature", "id": 27, "geometry": {"type": "Point", "coordinates": [-8.689208497565984, 43.21352270931865]}, "properties": {"OBJECTID": 27, "CONCELLO": "Carballo", "TIPO": "PL", "category": "policia_local", "source_layer": "Policía local e vixiantes municipais"}}, {"type": "Feature", "id": 28, "geometry": {"type": "Point", "coordinates": [-8.317162847900983, 43.33321697616807]}, "properties": {"OBJECTID": 28, "CONCELLO": "Oleiros", "TIPO": "PL", "category": "policia_local", "source_layer": "Policía local e vixiantes municipais"}}, {"type": "Feature", "id": 29, "geometry": {"type": "Point", "coordinates": [-8.16412881106856, 42.92701561402167]}, "properties": {"OBJECTID": 29, "CONCELLO": "Arzúa", "TIPO": "PL", "category": "policia_local", "source_layer": "Policía local e vixiantes municipais"}}, {"type": "Feature", "id": 30, "geometry": {"type": "Point", "coordinates": [-8.204822213612843, 43.34730218083501]}, "properties": {"OBJECTID": 30, "CONCELLO": "Miño", "TIPO": "PL", "category": "policia_local", "source_layer": "Policía local e vixiantes municipais"}}, {"type": "Feature", "id": 31, "geometry": {"type": "Point", "coordinates": [-8.818304012521331, 42.65189499550203]}, "properties": {"OBJECTID": 31, "CONCELLO": "Rianxo", "TIPO": "PL", "category": "policia_local", "source_layer": "Policía local e vixiantes municipais"}}, {"type": "Feature", "id": 32, "geometry": {"type": "Point", "coordinates": [-9.03441623807265, 43.11030511755946]}, "properties": {"OBJECTID": 32, "CONCELLO": "Vimianzo", "TIPO": "PL", "category": "policia_local", "source_layer": "Policía local e vixiantes municipais"}}, {"type": "Feature", "id": 33, "geometry": {"type": "Point", "coordinates": [-8.253592923308533, 43.351531370419046]}, "properties": {"OBJECTID": 33, "CONCELLO": "Sada", "TIPO": "PL", "category": "policia_local", "source_layer": "Policía local e vixiantes municipais"}}, {"type": "Feature", "id": 34, "geometry": {"type": "Point", "coordinates": [-8.582181089729476, 43.24859053862736]}, "properties": {"OBJECTID": 34, "CONCELLO": "A Laracha", "TIPO": "PL", "category": "policia_local", "source_layer": "Policía local e vixiantes municipais"}}, {"type": "Feature", "id": 35, "geometry": {"type": "Point", "coordinates": [-9.262285541654231, 42.909097816549455]}, "properties": {"OBJECTID": 35, "CONCELLO": "Fisterra", "TIPO": "PL", "category": "policia_local", "source_layer": "Policía local e vixiantes municipais"}}, {"type": "Feature", "id": 36, "geometry": {"type": "Point", "coordinates": [-8.916159784286103, 43.09972791263078]}, "properties": {"OBJECTID": 36, "CONCELLO": "Zas", "TIPO": "PL", "category": "policia_local", "source_layer": "Policía local e vixiantes municipais"}}, {"type": "Feature", "id": 38, "geometry": {"type": "Point", "coordinates": [-8.255076901187863, 43.46049229210851]}, "properties": {"OBJECTID": 38, "CONCELLO": "Mugardos", "TIPO": "PL", "category": "policia_local", "source_layer": "Policía local e vixiantes municipais"}}, {"type": "Feature", "id": 39, "geometry": {"type": "Point", "coordinates": [-8.820170256468769, 43.0366230772485]}, "properties": {"OBJECTID": 39, "CONCELLO": "Santa Comba", "TIPO": "PL", "category": "policia_local", "source_layer": "Policía local e vixiantes municipais"}}, {"type": "Feature", "id": 40, "geometry": {"type": "Point", "coordinates": [-8.288980996439006, 43.22721906570983]}, "properties": {"OBJECTID": 40, "CONCELLO": "Abegondo", "TIPO": "PL", "category": "policia_local", "source_layer": "Policía local e vixiantes municipais"}}, {"type": "Feature", "id": 41, "geometry": {"type": "Point", "coordinates": [-8.395826205402024, 43.37149173664387]}, "properties": {"OBJECTID": 41, "CONCELLO": "A Coruña", "TIPO": "PL", "category": "policia_local", "source_layer": "Policía local e vixiantes municipais"}}, {"type": "Feature", "id": 42, "geometry": {"type": "Point", "coordinates": [-8.678696055541314, 42.8661937041176]}, "properties": {"OBJECTID": 42, "CONCELLO": "Brión", "TIPO": "PL", "category": "policia_local", "source_layer": "Policía local e vixiantes municipais"}}, {"type": "Feature", "id": 43, "geometry": {"type": "Point", "coordinates": [-9.180734455392367, 43.13025974692027]}, "properties": {"OBJECTID": 43, "CONCELLO": "Camariñas", "TIPO": "PL", "category": "policia_local", "source_layer": "Policía local e vixiantes municipais"}}, {"type": "Feature", "id": 44, "geometry": {"type": "Point", "coordinates": [-8.389373122994135, 43.28833498507649]}, "properties": {"OBJECTID": 44, "CONCELLO": "Culleredo", "TIPO": "PL", "category": "policia_local", "source_layer": "Policía local e vixiantes municipais"}}, {"type": "Feature", "id": 45, "geometry": {"type": "Point", "coordinates": [-8.882602381944166, 42.646965179143486]}, "properties": {"OBJECTID": 45, "CONCELLO": "Boiro", "TIPO": "PL", "category": "policia_local", "source_layer": "Policía local e vixiantes municipais"}}, {"type": "Feature", "id": 46, "geometry": {"type": "Point", "coordinates": [-8.211516842735955, 43.281156484730644]}, "properties": {"OBJECTID": 46, "CONCELLO": "Betanzos", "TIPO": "PL", "category": "policia_local", "source_layer": "Policía local e vixiantes municipais"}}, {"type": "Feature", "id": 47, "geometry": {"type": "Point", "coordinates": [-8.407860589253103, 43.076744282396305]}, "properties": {"OBJECTID": 47, "CONCELLO": "Ordes", "TIPO": "PL", "category": "policia_local", "source_layer": "Policía local e vixiantes municipais"}}, {"type": "Feature", "id": 48, "geometry": {"type": "Point", "coordinates": [-9.006353505388969, 42.72456260784235]}, "properties": {"OBJECTID": 48, "CONCELLO": "Porto do Son", "TIPO": "PL", "category": "policia_local", "source_layer": "Policía local e vixiantes municipais"}}, {"type": "Feature", "id": 49, "geometry": {"type": "Point", "coordinates": [-8.66047970735375, 42.73837203285284]}, "properties": {"OBJECTID": 49, "CONCELLO": "Padrón", "TIPO": "PL", "category": "policia_local", "source_layer": "Policía local e vixiantes municipais"}}, {"type": "Feature", "id": 50, "geometry": {"type": "Point", "coordinates": [-8.47087632867111, 43.18895477927611]}, "properties": {"OBJECTID": 50, "CONCELLO": "Cerceda", "TIPO": "PL", "category": "policia_local", "source_layer": "Policía local e vixiantes municipais"}}, {"type": "Feature", "id": 51, "geometry": {"type": "Point", "coordinates": [-7.039333835848088, 43.536331092835745]}, "properties": {"OBJECTID": 51, "CONCELLO": "Ribadeo", "TIPO": "PL", "category": "policia_local", "source_layer": "Policía local e vixiantes municipais"}}, {"type": "Feature", "id": 52, "geometry": {"type": "Point", "coordinates": [-7.555650105794554, 43.01002420640162]}, "properties": {"OBJECTID": 52, "CONCELLO": "Lugo", "TIPO": "PL", "category": "policia_local", "source_layer": "Policía local e vixiantes municipais"}}, {"type": "Feature", "id": 53, "geometry": {"type": "Point", "coordinates": [-7.595189223545516, 43.66212214369151]}, "properties": {"OBJECTID": 53, "CONCELLO": "Viveiro", "TIPO": "PL", "category": "policia_local", "source_layer": "Policía local e vixiantes municipais"}}, {"type": "Feature", "id": 54, "geometry": {"type": "Point", "coordinates": [-7.416210901912655, 42.77699617641787]}, "properties": {"OBJECTID": 54, "CONCELLO": "Sarria", "TIPO": "PL", "category": "policia_local", "source_layer": "Policía local e vixiantes municipais"}}, {"type": "Feature", "id": 55, "geometry": {"type": "Point", "coordinates": [-7.894210029114114, 43.18084165710987]}, "properties": {"OBJECTID": 55, "CONCELLO": "Guitiriz", "TIPO": "PL", "category": "policia_local", "source_layer": "Policía local e vixiantes municipais"}}, {"type": "Feature", "id": 56, "geometry": {"type": "Point", "coordinates": [-7.86936112243995, 42.87317068860527]}, "properties": {"OBJECTID": 56, "CONCELLO": "Palas de Rei", "TIPO": "PL", "category": "policia_local", "source_layer": "Policía local e vixiantes municipais"}}, {"type": "Feature", "id": 57, "geometry": {"type": "Point", "coordinates": [-7.357871095891815, 43.65906905417796]}, "properties": {"OBJECTID": 57, "CONCELLO": "Burela", "TIPO": "PL", "category": "policia_local", "source_layer": "Policía local e vixiantes municipais"}}, {"type": "Feature", "id": 58, "geometry": {"type": "Point", "coordinates": [-7.509302304509893, 43.68629806203183]}, "properties": {"OBJECTID": 58, "CONCELLO": "Xove", "TIPO": "VX", "category": "policia_local", "source_layer": "Policía local e vixiantes municipais"}}, {"type": "Feature", "id": 59, "geometry": {"type": "Point", "coordinates": [-7.4112509911541355, 43.671577100805074]}, "properties": {"OBJECTID": 59, "CONCELLO": "Cervo", "TIPO": "PL", "category": "policia_local", "source_layer": "Policía local e vixiantes municipais"}}, {"type": "Feature", "id": 60, "geometry": {"type": "Point", "coordinates": [-7.272712855533842, 42.47602538206455]}, "properties": {"OBJECTID": 60, "CONCELLO": "Quiroga", "TIPO": "PL", "category": "policia_local", "source_layer": "Policía local e vixiantes municipais"}}, {"type": "Feature", "id": 61, "geometry": {"type": "Point", "coordinates": [-7.259802668480937, 43.56846535084639]}, "properties": {"OBJECTID": 61, "CONCELLO": "Foz", "TIPO": "PL", "category": "policia_local", "source_layer": "Policía local e vixiantes municipais"}}, {"type": "Feature", "id": 62, "geometry": {"type": "Point", "coordinates": [-7.069242450061542, 43.12539083460702]}, "properties": {"OBJECTID": 62, "CONCELLO": "A Fonsagrada", "TIPO": "PL", "category": "policia_local", "source_layer": "Policía local e vixiantes municipais"}}, {"type": "Feature", "id": 63, "geometry": {"type": "Point", "coordinates": [-7.161448279518583, 42.85308801639267]}, "properties": {"OBJECTID": 63, "CONCELLO": "Becerreá", "TIPO": "VX", "category": "policia_local", "source_layer": "Policía local e vixiantes municipais"}}, {"type": "Feature", "id": 64, "geometry": {"type": "Point", "coordinates": [-7.680547339754546, 43.297068137546134]}, "properties": {"OBJECTID": 64, "CONCELLO": "Vilalba", "TIPO": "PL", "category": "policia_local", "source_layer": "Policía local e vixiantes municipais"}}, {"type": "Feature", "id": 65, "geometry": {"type": "Point", "coordinates": [-7.622358606735481, 43.12076514492655]}, "properties": {"OBJECTID": 65, "CONCELLO": "Rábade", "TIPO": "PL", "category": "policia_local", "source_layer": "Policía local e vixiantes municipais"}}, {"type": "Feature", "id": 66, "geometry": {"type": "Point", "coordinates": [-7.363689639777793, 43.429775349664425]}, "properties": {"OBJECTID": 66, "CONCELLO": "Mondoñedo", "TIPO": "PL", "category": "policia_local", "source_layer": "Policía local e vixiantes municipais"}}, {"type": "Feature", "id": 67, "geometry": {"type": "Point", "coordinates": [-7.437268151962243, 41.938389616069344]}, "properties": {"OBJECTID": 67, "CONCELLO": "Verín", "TIPO": "PL", "category": "policia_local", "source_layer": "Policía local e vixiantes municipais"}}, {"type": "Feature", "id": 68, "geometry": {"type": "Point", "coordinates": [-7.88750802554495, 42.29911575921539]}, "properties": {"OBJECTID": 68, "CONCELLO": "Barbadás", "TIPO": "PL", "category": "policia_local", "source_layer": "Policía local e vixiantes municipais"}}, {"type": "Feature", "id": 69, "geometry": {"type": "Point", "coordinates": [-7.724830592598278, 42.06365194865063]}, "properties": {"OBJECTID": 69, "CONCELLO": "Xinzo de Limia", "TIPO": "PL", "category": "policia_local", "source_layer": "Policía local e vixiantes municipais"}}, {"type": "Feature", "id": 70, "geometry": {"type": "Point", "coordinates": [-7.957725502603706, 42.151987495664144]}, "properties": {"OBJECTID": 70, "CONCELLO": "Celanova", "TIPO": "PL", "category": "policia_local", "source_layer": "Policía local e vixiantes municipais"}}, {"type": "Feature", "id": 71, "geometry": {"type": "Point", "coordinates": [-7.863873341283873, 42.3354300034224]}, "properties": {"OBJECTID": 71, "CONCELLO": "Ourense", "TIPO": "PL", "category": "policia_local", "source_layer": "Policía local e vixiantes municipais"}}, {"type": "Feature", "id": 72, "geometry": {"type": "Point", "coordinates": [-7.6508984409461736, 42.269962079014135]}, "properties": {"OBJECTID": 72, "CONCELLO": "Maceda", "TIPO": "PL", "category": "policia_local", "source_layer": "Policía local e vixiantes municipais"}}, {"type": "Feature", "id": 73, "geometry": {"type": "Point", "coordinates": [-8.251523371299562, 42.37600908430694]}, "properties": {"OBJECTID": 73, "CONCELLO": "Avión", "TIPO": "VX", "category": "policia_local", "source_layer": "Policía local e vixiantes municipais"}}, {"type": "Feature", "id": 74, "geometry": {"type": "Point", "coordinates": [-7.801545484147919, 42.190167333540614]}, "properties": {"OBJECTID": 74, "CONCELLO": "Allariz", "TIPO": "PL", "category": "policia_local", "source_layer": "Policía local e vixiantes municipais"}}, {"type": "Feature", "id": 75, "geometry": {"type": "Point", "coordinates": [-8.077471697867212, 42.42963771676663]}, "properties": {"OBJECTID": 75, "CONCELLO": "O Carballiño", "TIPO": "PL", "category": "policia_local", "source_layer": "Policía local e vixiantes municipais"}}, {"type": "Feature", "id": 76, "geometry": {"type": "Point", "coordinates": [-7.25197929946712, 42.340724585863875]}, "properties": {"OBJECTID": 76, "CONCELLO": "A Pobra de Trives", "TIPO": "PL", "category": "policia_local", "source_layer": "Policía local e vixiantes municipais"}}, {"type": "Feature", "id": 77, "geometry": {"type": "Point", "coordinates": [-7.975326308426854, 42.031659130625684]}, "properties": {"OBJECTID": 77, "CONCELLO": "Bande", "TIPO": "VX", "category": "policia_local", "source_layer": "Policía local e vixiantes municipais"}}, {"type": "Feature", "id": 78, "geometry": {"type": "Point", "coordinates": [-8.143486765339421, 42.28770544049115]}, "properties": {"OBJECTID": 78, "CONCELLO": "Ribadavia", "TIPO": "PL", "category": "policia_local", "source_layer": "Policía local e vixiantes municipais"}}, {"type": "Feature", "id": 79, "geometry": {"type": "Point", "coordinates": [-7.114885342404441, 42.180340931184126]}, "properties": {"OBJECTID": 79, "CONCELLO": "Viana do Bolo", "TIPO": "PL", "category": "policia_local", "source_layer": "Policía local e vixiantes municipais"}}, {"type": "Feature", "id": 80, "geometry": {"type": "Point", "coordinates": [-6.984694669126643, 42.416528491727]}, "properties": {"OBJECTID": 80, "CONCELLO": "O Barco de Valdeorras", "TIPO": "PL", "category": "policia_local", "source_layer": "Policía local e vixiantes municipais"}}, {"type": "Feature", "id": 81, "geometry": {"type": "Point", "coordinates": [-7.415364936913433, 42.37450798953366]}, "properties": {"OBJECTID": 81, "CONCELLO": "Castro Caldelas", "TIPO": "VX", "category": "policia_local", "source_layer": "Policía local e vixiantes municipais"}}, {"type": "Feature", "id": 82, "geometry": {"type": "Point", "coordinates": [-8.781870861876225, 42.44430274832]}, "properties": {"OBJECTID": 82, "CONCELLO": "Meaño", "TIPO": "PL", "category": "policia_local", "source_layer": "Policía local e vixiantes municipais"}}, {"type": "Feature", "id": 83, "geometry": {"type": "Point", "coordinates": [-8.169886333094404, 42.79406110382852]}, "properties": {"OBJECTID": 83, "CONCELLO": "Vila de Cruces", "TIPO": "PL", "category": "policia_local", "source_layer": "Policía local e vixiantes municipais"}}, {"type": "Feature", "id": 84, "geometry": {"type": "Point", "coordinates": [-8.638167353001057, 42.359698329681194]}, "properties": {"OBJECTID": 84, "CONCELLO": "Vilaboa", "TIPO": "PL", "category": "policia_local", "source_layer": "Policía local e vixiantes municipais"}}, {"type": "Feature", "id": 85, "geometry": {"type": "Point", "coordinates": [-8.41545270864003, 42.08843979137274]}, "properties": {"OBJECTID": 85, "CONCELLO": "As Neves", "TIPO": "PL", "category": "policia_local", "source_layer": "Policía local e vixiantes municipais"}}, {"type": "Feature", "id": 86, "geometry": {"type": "Point", "coordinates": [-8.222985297192526, 42.15195809575521]}, "properties": {"OBJECTID": 86, "CONCELLO": "Crecente", "TIPO": "VX", "category": "policia_local", "source_layer": "Policía local e vixiantes municipais"}}, {"type": "Feature", "id": 87, "geometry": {"type": "Point", "coordinates": [-8.64685814759718, 42.4319942373119]}, "properties": {"OBJECTID": 87, "CONCELLO": "Pontevedra", "TIPO": "PL", "category": "policia_local", "source_layer": "Policía local e vixiantes municipais"}}, {"type": "Feature", "id": 88, "geometry": {"type": "Point", "coordinates": [-8.557751539000146, 42.102277645374855]}, "properties": {"OBJECTID": 88, "CONCELLO": "Salceda de Caselas", "TIPO": "PL", "category": "policia_local", "source_layer": "Policía local e vixiantes municipais"}}, {"type": "Feature", "id": 89, "geometry": {"type": "Point", "coordinates": [-8.763578925603973, 42.59725132319411]}, "properties": {"OBJECTID": 89, "CONCELLO": "Vilagarcía de Arousa", "TIPO": "PL", "category": "policia_local", "source_layer": "Policía local e vixiantes municipais"}}, {"type": "Feature", "id": 90, "geometry": {"type": "Point", "coordinates": [-8.865308636532854, 42.49647442075658]}, "properties": {"OBJECTID": 90, "CONCELLO": "O Grove", "TIPO": "PL", "category": "policia_local", "source_layer": "Policía local e vixiantes municipais"}}, {"type": "Feature", "id": 91, "geometry": {"type": "Point", "coordinates": [-8.648571105177222, 42.69960890451924]}, "properties": {"OBJECTID": 91, "CONCELLO": "Valga", "TIPO": "VX", "category": "policia_local", "source_layer": "Policía local e vixiantes municipais"}}, {"type": "Feature", "id": 92, "geometry": {"type": "Point", "coordinates": [-8.784707626348366, 42.32666959642807]}, "properties": {"OBJECTID": 92, "CONCELLO": "Bueu", "TIPO": "PL", "category": "policia_local", "source_layer": "Policía local e vixiantes municipais"}}, {"type": "Feature", "id": 93, "geometry": {"type": "Point", "coordinates": [-8.488950516079143, 42.68848982688643]}, "properties": {"OBJECTID": 93, "CONCELLO": "A Estrada", "TIPO": "PL", "category": "policia_local", "source_layer": "Policía local e vixiantes municipais"}}, {"type": "Feature", "id": 94, "geometry": {"type": "Point", "coordinates": [-8.806614648567644, 42.40033468596889]}, "properties": {"OBJECTID": 94, "CONCELLO": "Sanxenxo", "TIPO": "PL", "category": "policia_local", "source_layer": "Policía local e vixiantes municipais"}}, {"type": "Feature", "id": 95, "geometry": {"type": "Point", "coordinates": [-8.806685073283417, 42.14153011010763]}, "properties": {"OBJECTID": 95, "CONCELLO": "Nigrán", "TIPO": "PL", "category": "policia_local", "source_layer": "Policía local e vixiantes municipais"}}, {"type": "Feature", "id": 96, "geometry": {"type": "Point", "coordinates": [-8.018998682415658, 42.76260022766284]}, "properties": {"OBJECTID": 96, "CONCELLO": "Agolada", "TIPO": "VX", "category": "policia_local", "source_layer": "Policía local e vixiantes municipais"}}, {"type": "Feature", "id": 97, "geometry": {"type": "Point", "coordinates": [-8.826750275369218, 42.56207578143574]}, "properties": {"OBJECTID": 97, "CONCELLO": "Vilanova de Arousa", "TIPO": "PL", "category": "policia_local", "source_layer": "Policía local e vixiantes municipais"}}, {"type": "Feature", "id": 98, "geometry": {"type": "Point", "coordinates": [-8.640173584468535, 42.191312581125636]}, "properties": {"OBJECTID": 98, "CONCELLO": "Mos", "TIPO": "PL", "category": "policia_local", "source_layer": "Policía local e vixiantes municipais"}}, {"type": "Feature", "id": 99, "geometry": {"type": "Point", "coordinates": [-8.698975183646668, 42.392732037285995]}, "properties": {"OBJECTID": 99, "CONCELLO": "Marín", "TIPO": "PL", "category": "policia_local", "source_layer": "Policía local e vixiantes municipais"}}, {"type": "Feature", "id": 100, "geometry": {"type": "Point", "coordinates": [-8.873919379958929, 42.56382565683734]}, "properties": {"OBJECTID": 100, "CONCELLO": "A Illa de Arousa", "TIPO": "PL", "category": "policia_local", "source_layer": "Policía local e vixiantes municipais"}}, {"type": "Feature", "id": 101, "geometry": {"type": "Point", "coordinates": [-8.837461966615521, 41.93716806998537]}, "properties": {"OBJECTID": 101, "CONCELLO": "O Rosal", "TIPO": "PL", "category": "policia_local", "source_layer": "Policía local e vixiantes municipais"}}, {"type": "Feature", "id": 102, "geometry": {"type": "Point", "coordinates": [-8.642194444628467, 42.60253674727302]}, "properties": {"OBJECTID": 102, "CONCELLO": "Caldas de Reis", "TIPO": "PL", "category": "policia_local", "source_layer": "Policía local e vixiantes municipais"}}, {"type": "Feature", "id": 103, "geometry": {"type": "Point", "coordinates": [-8.273447652530274, 42.21265563960573]}, "properties": {"OBJECTID": 103, "CONCELLO": "A Cañiza", "TIPO": "PL", "category": "policia_local", "source_layer": "Policía local e vixiantes municipais"}}, {"type": "Feature", "id": 104, "geometry": {"type": "Point", "coordinates": [-8.726722421637218, 42.23630635658614]}, "properties": {"OBJECTID": 104, "CONCELLO": "Vigo", "TIPO": "PL", "category": "policia_local", "source_layer": "Policía local e vixiantes municipais"}}, {"type": "Feature", "id": 105, "geometry": {"type": "Point", "coordinates": [-8.590791993970548, 42.58921827210398]}, "properties": {"OBJECTID": 105, "CONCELLO": "Moraña", "TIPO": "VX", "category": "policia_local", "source_layer": "Policía local e vixiantes municipais"}}, {"type": "Feature", "id": 106, "geometry": {"type": "Point", "coordinates": [-8.116637684067008, 42.66057645657419]}, "properties": {"OBJECTID": 106, "CONCELLO": "Lalín", "TIPO": "PL", "category": "policia_local", "source_layer": "Policía local e vixiantes municipais"}}, {"type": "Feature", "id": 107, "geometry": {"type": "Point", "coordinates": [-8.503131322975243, 42.17349125601144]}, "properties": {"OBJECTID": 107, "CONCELLO": "Ponteareas", "TIPO": "PL", "category": "policia_local", "source_layer": "Policía local e vixiantes municipais"}}, {"type": "Feature", "id": 108, "geometry": {"type": "Point", "coordinates": [-8.733293083058792, 42.287235821235626]}, "properties": {"OBJECTID": 108, "CONCELLO": "Moaña", "TIPO": "PL", "category": "policia_local", "source_layer": "Policía local e vixiantes municipais"}}, {"type": "Feature", "id": 109, "geometry": {"type": "Point", "coordinates": [-8.571905709640639, 42.33683209851077]}, "properties": {"OBJECTID": 109, "CONCELLO": "Soutomaior", "TIPO": "PL", "category": "policia_local", "source_layer": "Policía local e vixiantes municipais"}}, {"type": "Feature", "id": 110, "geometry": {"type": "Point", "coordinates": [-8.814560070939299, 42.51536089620634]}, "properties": {"OBJECTID": 110, "CONCELLO": "Cambados", "TIPO": "PL", "category": "policia_local", "source_layer": "Policía local e vixiantes municipais"}}, {"type": "Feature", "id": 111, "geometry": {"type": "Point", "coordinates": [-8.742807643737853, 41.99126975617442]}, "properties": {"OBJECTID": 111, "CONCELLO": "Tomiño", "TIPO": "PL", "category": "policia_local", "source_layer": "Policía local e vixiantes municipais"}}, {"type": "Feature", "id": 112, "geometry": {"type": "Point", "coordinates": [-8.81115679362187, 43.32280871957572]}, "properties": {"OBJECTID": 112, "CONCELLO": "Malpica de Bergantiños", "TIPO": "PL", "category": "policia_local", "source_layer": "Policía local e vixiantes municipais"}}, {"type": "Feature", "id": 113, "geometry": {"type": "Point", "coordinates": [-7.11409490270725, 42.39505164988561]}, "properties": {"OBJECTID": 113, "CONCELLO": "A Rúa", "TIPO": "PL", "category": "policia_local", "source_layer": "Policía local e vixiantes municipais"}}, {"type": "Feature", "id": 114, "geometry": {"type": "Point", "coordinates": [-7.854612716971684, 43.684682155476125]}, "properties": {"OBJECTID": 114, "CONCELLO": "Ortigueira", "TIPO": "PL", "category": "policia_local", "source_layer": "Policía local e vixiantes municipais"}}, {"type": "Feature", "id": 115, "geometry": {"type": "Point", "coordinates": [-7.852955451943299, 43.450934980923236]}, "properties": {"OBJECTID": 115, "CONCELLO": "As Pontes de García Rodríguez", "TIPO": "PL", "category": "policia_local", "source_layer": "Policía local e vixiantes municipais"}}, {"type": "Feature", "id": 116, "geometry": {"type": "Point", "coordinates": [-8.162685858276161, 43.47394217899775]}, "properties": {"OBJECTID": 116, "CONCELLO": "Fene", "TIPO": "PL", "category": "policia_local", "source_layer": "Policía local e vixiantes municipais"}}, {"type": "Feature", "id": 117, "geometry": {"type": "Point", "coordinates": [-8.19238463726913, 43.50094424523864]}, "properties": {"OBJECTID": 117, "CONCELLO": "Narón", "TIPO": "PL", "category": "policia_local", "source_layer": "Policía local e vixiantes municipais"}}, {"type": "Feature", "id": 118, "geometry": {"type": "Point", "coordinates": [-9.216831863484819, 43.104389920114954]}, "properties": {"OBJECTID": 118, "CONCELLO": "Muxía", "TIPO": "PL", "category": "policia_local", "source_layer": "Policía local e vixiantes municipais"}}, {"type": "Feature", "id": 119, "geometry": {"type": "Point", "coordinates": [-9.086978148383094, 42.820925033270896]}, "properties": {"OBJECTID": 119, "CONCELLO": "Carnota", "TIPO": "PL", "category": "policia_local", "source_layer": "Policía local e vixiantes municipais"}}, {"type": "Feature", "id": 120, "geometry": {"type": "Point", "coordinates": [-9.057502630622235, 42.77441777084268]}, "properties": {"OBJECTID": 120, "CONCELLO": "Muros", "TIPO": "PL", "category": "policia_local", "source_layer": "Policía local e vixiantes municipais"}}, {"type": "Feature", "id": 121, "geometry": {"type": "Point", "coordinates": [-8.651041492379282, 42.72180749170989]}, "properties": {"OBJECTID": 121, "CONCELLO": "Pontecesures", "TIPO": "VX", "category": "policia_local", "source_layer": "Policía local e vixiantes municipais"}}, {"type": "Feature", "id": 122, "geometry": {"type": "Point", "coordinates": [-8.563014868340177, 42.63282883015061]}, "properties": {"OBJECTID": 122, "CONCELLO": "Cuntis", "TIPO": "PL", "category": "policia_local", "source_layer": "Policía local e vixiantes municipais"}}, {"type": "Feature", "id": 123, "geometry": {"type": "Point", "coordinates": [-8.517416977754857, 43.02653158748978]}, "properties": {"OBJECTID": 123, "CONCELLO": "Trazo", "TIPO": "VX", "category": "policia_local", "source_layer": "Policía local e vixiantes municipais"}}, {"type": "Feature", "id": 124, "geometry": {"type": "Point", "coordinates": [-8.441764709705543, 42.96878723231278]}, "properties": {"OBJECTID": 124, "CONCELLO": "Oroso", "TIPO": "PL", "category": "policia_local", "source_layer": "Policía local e vixiantes municipais"}}, {"type": "Feature", "id": 125, "geometry": {"type": "Point", "coordinates": [-8.546207619197899, 42.88029498960343]}, "properties": {"OBJECTID": 125, "CONCELLO": "Santiago de Compostela", "TIPO": "PL", "category": "policia_local", "source_layer": "Policía local e vixiantes municipais"}}, {"type": "Feature", "id": 126, "geometry": {"type": "Point", "coordinates": [-8.248115495603747, 42.69769473445086]}, "properties": {"OBJECTID": 126, "CONCELLO": "Silleda", "TIPO": "PL", "category": "policia_local", "source_layer": "Policía local e vixiantes municipais"}}, {"type": "Feature", "id": 128, "geometry": {"type": "Point", "coordinates": [-7.768768642258406, 42.60747068006223]}, "properties": {"OBJECTID": 128, "CONCELLO": "Chantada", "TIPO": "PL", "category": "policia_local", "source_layer": "Policía local e vixiantes municipais"}}, {"type": "Feature", "id": 129, "geometry": {"type": "Point", "coordinates": [-7.516907374115288, 42.522806984860146]}, "properties": {"OBJECTID": 129, "CONCELLO": "Monforte de Lemos", "TIPO": "PL", "category": "policia_local", "source_layer": "Policía local e vixiantes municipais"}}, {"type": "Feature", "id": 130, "geometry": {"type": "Point", "coordinates": [-8.685821293720075, 42.44615637669082]}, "properties": {"OBJECTID": 130, "CONCELLO": "Poio", "TIPO": "PL", "category": "policia_local", "source_layer": "Policía local e vixiantes municipais"}}, {"type": "Feature", "id": 131, "geometry": {"type": "Point", "coordinates": [-8.50321821960072, 42.39081136476676]}, "properties": {"OBJECTID": 131, "CONCELLO": "Ponte Caldelas", "TIPO": "PL", "category": "policia_local", "source_layer": "Policía local e vixiantes municipais"}}, {"type": "Feature", "id": 132, "geometry": {"type": "Point", "coordinates": [-8.6090676537396, 42.283720213207644]}, "properties": {"OBJECTID": 132, "CONCELLO": "Redondela", "TIPO": "PL", "category": "policia_local", "source_layer": "Policía local e vixiantes municipais"}}, {"type": "Feature", "id": 133, "geometry": {"type": "Point", "coordinates": [-8.780431772270292, 42.26367883667833]}, "properties": {"OBJECTID": 133, "CONCELLO": "Cangas", "TIPO": "PL", "category": "policia_local", "source_layer": "Policía local e vixiantes municipais"}}, {"type": "Feature", "id": 134, "geometry": {"type": "Point", "coordinates": [-8.455356739721951, 42.23447388619847]}, "properties": {"OBJECTID": 134, "CONCELLO": "Mondariz", "TIPO": "PL", "category": "policia_local", "source_layer": "Policía local e vixiantes municipais"}}, {"type": "Feature", "id": 135, "geometry": {"type": "Point", "coordinates": [-8.498229086176947, 42.083342435332796]}, "properties": {"OBJECTID": 135, "CONCELLO": "Salvaterra de Miño", "TIPO": "PL", "category": "policia_local", "source_layer": "Policía local e vixiantes municipais"}}, {"type": "Feature", "id": 136, "geometry": {"type": "Point", "coordinates": [-8.849453649870062, 42.119170613486446]}, "properties": {"OBJECTID": 136, "CONCELLO": "Baiona", "TIPO": "PL", "category": "policia_local", "source_layer": "Policía local e vixiantes municipais"}}, {"type": "Feature", "id": 137, "geometry": {"type": "Point", "coordinates": [-8.761582903646545, 42.11057641972056]}, "properties": {"OBJECTID": 137, "CONCELLO": "Gondomar", "TIPO": "PL", "category": "policia_local", "source_layer": "Policía local e vixiantes municipais"}}, {"type": "Feature", "id": 138, "geometry": {"type": "Point", "coordinates": [-8.620771965812743, 42.16180262505499]}, "properties": {"OBJECTID": 138, "CONCELLO": "O Porriño", "TIPO": "PL", "category": "policia_local", "source_layer": "Policía local e vixiantes municipais"}}, {"type": "Feature", "id": 139, "geometry": {"type": "Point", "coordinates": [-8.644246396222325, 42.04650167903047]}, "properties": {"OBJECTID": 139, "CONCELLO": "Tui", "TIPO": "PL", "category": "policia_local", "source_layer": "Policía local e vixiantes municipais"}}, {"type": "Feature", "id": 140, "geometry": {"type": "Point", "coordinates": [-8.874225845662396, 41.9011150988663]}, "properties": {"OBJECTID": 140, "CONCELLO": "A Guarda", "TIPO": "PL", "category": "policia_local", "source_layer": "Policía local e vixiantes municipais"}}]}