{"type": "FeatureCollection", "features": [{"type": "Feature", "id": 27, "geometry": {"type": "Point", "coordinates": [-8.507188770410206, 43.31112013337578]}, "properties": {"OBJECTID": 27, "NOMESMPC": "Arteixo", "category": "smpc", "source_layer": "SMPC"}}, {"type": "Feature", "id": 28, "geometry": {"type": "Point", "coordinates": [-8.354474438126985, 43.28728145482588]}, "properties": {"OBJECTID": 28, "NOMESMPC": "Cambre", "category": "smpc", "source_layer": "SMPC"}}, {"type": "Feature", "id": 29, "geometry": {"type": "Point", "coordinates": [-8.292344399028257, 43.326056789265714]}, "properties": {"OBJECTID": 29, "NOMESMPC": "Sada", "category": "smpc", "source_layer": "SMPC"}}, {"type": "Feature", "id": 30, "geometry": {"type": "Point", "coordinates": [-8.881157014671363, 42.65958263601221]}, "properties": {"OBJECTID": 30, "NOMESMPC": "Boiro", "category": "smpc", "source_layer": "SMPC"}}, {"type": "Feature", "id": 31, "geometry": {"type": "Point", "coordinates": [-8.379752562723072, 43.32031504414958]}, "properties": {"OBJECTID": 31, "NOMESMPC": "Culleredo", "category": "smpc", "source_layer": "SMPC"}}, {"type": "Feature", "id": 32, "geometry": {"type": "Point", "coordinates": [-8.31603785355225, 43.32555150369067]}, "properties": {"OBJECTID": 32, "NOMESMPC": "Oleiros", "category": "smpc", "source_layer": "SMPC"}}, {"type": "Feature", "id": 33, "geometry": {"type": "Point", "coordinates": [-8.993202934569483, 42.55487164183597]}, "properties": {"OBJECTID": 33, "NOMESMPC": "Ribeira", "category": "smpc", "source_layer": "SMPC"}}, {"type": "Feature", "id": 34, "geometry": {"type": "Point", "coordinates": [-8.804927124715736, 43.03129028688232]}, "properties": {"OBJECTID": 34, "NOMESMPC": "Santa Comba", "category": "smpc", "source_layer": "SMPC"}}, {"type": "Feature", "id": 35, "geometry": {"type": "Point", "coordinates": [-8.537853981841803, 42.786419144025274]}, "properties": {"OBJECTID": 35, "NOMESMPC": "Teo", "category": "smpc", "source_layer": "SMPC"}}, {"type": "Feature", "id": 36, "geometry": {"type": "Point", "coordinates": [-7.590519421292436, 43.66738075285888]}, "properties": {"OBJECTID": 36, "NOMESMPC": "Viveiro", "category": "smpc", "source_layer": "SMPC"}}, {"type": "Feature", "id": 37, "geometry": {"type": "Point", "coordinates": [-7.680620853096861, 43.297260829601385]}, "properties": {"OBJECTID": 37, "NOMESMPC": "Vilalba", "category": "smpc", "source_layer": "SMPC"}}, {"type": "Feature", "id": 38, "geometry": {"type": "Point", "coordinates": [-8.063458313462764, 42.43446965115357]}, "properties": {"OBJECTID": 38, "NOMESMPC": "O Carballiño", "category": "smpc", "source_layer": "SMPC"}}, {"type": "Feature", "id": 39, "geometry": {"type": "Point", "coordinates": [-8.774029695709595, 42.52719442350573]}, "properties": {"OBJECTID": 39, "NOMESMPC": "Cambados", "category": "smpc", "source_layer": "SMPC"}}, {"type": "Feature", "id": 40, "geometry": {"type": "Point", "coordinates": [-8.612635765114655, 42.28287268769666]}, "properties": {"OBJECTID": 40, "NOMESMPC": "Redondela", "category": "smpc", "source_layer": "SMPC"}}, {"type": "Feature", "id": 41, "geometry": {"type": "Point", "coordinates": [-8.764867362642232, 42.58851496499945]}, "properties": {"OBJECTID": 41, "NOMESMPC": "Vilagarcía", "category": "smpc", "source_layer": "SMPC"}}]}