{"type": "FeatureCollection", "features": [{"type": "Feature", "id": 1, "geometry": null, "properties": {"DIRECCION": "Rúa Roma 25-27, Polígono das Fontiñas - 15703 Santiago de Compostela", "OBJECTID": 1, "NOME": "Santiago de Compostela", "TELEFONO": "981 546 474", "CORREO": "galipol.xefatura@xunta.gal / galipol.sala@xunta.gal", "category": "upa", "source_layer": "Unidade Policía Adscrita"}}, {"type": "Feature", "id": 2, "geometry": null, "properties": {"DIRECCION": "Avenida do Porto 5, 15006 A Coruña", "OBJECTID": 2, "NOME": "A Coruña", "TELEFONO": "881 961 000", "CORREO": "galipol.xpco@xunta.gal", "category": "upa", "source_layer": "Unidade Policía Adscrita"}}, {"type": "Feature", "id": 3, "geometry": null, "properties": {"DIRECCION": "Ronda Fingoi - Esq. Avda. Madrid", "OBJECTID": 3, "NOME": "Lugo", "TELEFONO": "982 252 611", "CORREO": "galipol.xplu@xunta.gal", "category": "upa", "source_layer": "Unidade Policía Adscrita"}}, {"type": "Feature", "id": 4, "geometry": null, "properties": {"DIRECCION": "Rúa Clara Campoamor, 15 B - 32002 Ourense", "OBJECTID": 4, "NOME": "Ourense", "TELEFONO": "988 241 200", "CORREO": "galipol.xpou@xunta.gal", "category": "upa", "source_layer": "Unidade Policía Adscrita"}}, {"type": "Feature", "id": 5, "geometry": null, "properties": {"DIRECCION": "Avda. Fernández Ladreda, 43", "OBJECTID": 5, "NOME": "Pontevedra", "TELEFONO": "886 206 142", "CORREO": "galipol.xppo@xunta.gal", "category": "upa", "source_layer": "Unidade Policía Adscrita"}}, {"type": "Feature", "id": 6, "geometry": null, "properties": {"DIRECCION": "Rúa Pateira, 7 interior", "OBJECTID": 6, "NOME": "Vigo", "TELEFONO": "986 266 158", "CORREO": "galipol.xlvi@xunta.gal", "category": "upa", "source_layer": "Unidade Policía Adscrita"}}]}